ROWNUM;Name;Address;X;Y;DISTRICT;AREA;FAX;EMAIL;WEB_SITE;GLOBALID;
1;"ФГ БУ Российская государственная библиотека (РГБ)";"ул. Воздвиженка, д.3/5";"37,609107";"55,750878";"";"";"";"gek@rsl.ru";"rsl.ru";"85988451";
2;"ФГ БУК Всероссийская государственная библиотека иностранной литературы им. М.И. Рудомино (ВГБИЛ)";"ул. Николоямская, д.1";"37,648172";"55,748568";"";"";"";"genieva@libfl.ru";"libfl.ru";"85988452";
3;"ФГ БУК Государственная публичная историческая библиотека (ГИПБ)";"Старосадский пер., д.9, стр. 1";"37,640006";"55,756211";"";"";"";"maf@shpl.ru";"shpl.ru";"85988453";
4;"ФГ БУК Российская государственная библиотека по искусству (РГБИ)";"ул. Большая Дмитровка, д.8/1";"37,615423";"55,760784";"";"";"";"bisk@liart.ru";"liart.ru";"85988454";
5;"ФГ БУК Государственная общественно-политическая библиотека (ГОПБ)";"ул. Вильгельма Пика, д.4, стр. 2";"37,635244";"55,836196";"";"";"";"gopb@gopb.ru";"gopb.ru";"85988455";
6;"ФГ БУК Российская государственная библиотека для слепых (РГБС)";"Протопоповский пер., д.9, стр. 1";"37,638129";"55,780578";"";"";"";"admin@rgbs.ru";"rgbs.ru";"85988456";
7;"ФГ БУК Российская государственная библиотека для молодежи";"ул. Большая Черкизовская, д.4, корпус 1";"37,717582";"55,7958";"";"";"";"info@rgub.ru";"rgub.ru";"85988457";
8;"ФГ БУК Российская государственная детская библиотека (РГДБ)";"Калужская пл., д.1";"37,612959";"55,728442";"";"";"";"rgdb@rgdb.ru";"rgdb.ru";"85988458";
9;"Государственная публичная научно-техническая библиотека России (ГПНТБ России)";"ул. Кузнецкий мост, д.12";"37,621199";"55,761699";"";"";"";"gpntb@gpntb.ru";"gpntb.ru";"85988459";
10;"Центральная научная медицинская библиотека Первого МГМУ им. И.М.Сеченова (ЦНМБ) Министерства здравоохранения Российской Федерации";"Нахимовский пр-т., д.49";"37,565099";"55,67518";"";"";"";"document@server.scsml.rssi.ru";"scsml.rssi.ru";"85988460";
11;"Фундаментальная библиотека ИНИОН РАН";"Нахимовский пр-т, д.51/21";"37,563826";"55,676165";"";"";"";"info@inion.ru";"inion.ru";"85988461";
12;"Федеральное государственное научное учреждение «Научная педагогическая библиотека им. К.Д. Ушинского»";"Большой Толмачевский пер., д.3";"37,621874";"55,74007";"";"";"";"";"gnpbu.ru";"85988462";
13;"Министерство культуры Российской Федерации Российская государственная деткая библиотека";"Калужская пл., д.1";"37,612651";"55,728454";"";"";"";"";"rgdb.ru";"85988463";
14;"Государственное бюджетное учреждение культуры города Москвы «Центральная библиотечная система № 3 Южного административного округа», Библиотека № 172 «Просвящения трудящихся», информационный интеллект-центр";"улица Шаболовка, дом 36";"37,608018";"55,717561";"Южный административный округ";"Донской район";"(499) 615-15-85";"cbs3uao@rambler.ru";"cbs3-uao.ru";"87036280";
15;"Государственное бюджетное учреждение культуры города Москвы «Центральная библиотечная система № 3 Южного административного округа», Библиотека № 204, информационный интеллект-центр";"проспект Андропова, дом 38";"37,661646";"55,674085";"Южный административный округ";"район Нагатино-Садовники";"(499) 615-15-85";"cbs3uao@rambler.ru";"cbs3-uao.ru";"87036281";
16;"Государственное бюджетное учреждение культуры города Москвы «Центральная библиотечная система № 3 Южного административного округа», Библиотека № 215 семейного чтения";"Нагатинская улица, дом 11, корпус 1";"37,639365";"55,680126";"Южный административный округ";"район Нагатино-Садовники";"(499) 615-15-85";"cbs3uao@rambler.ru";"cbs3-uao.ru";"87036282";
17;"Государственное бюджетное учреждение культуры города Москвы «Центральная библиотечная система № 3 Южного административного округа», Библиотека № 225";"Нагатинская набережная, дом 20, корпус 2";"37,655511";"55,681458";"Южный административный округ";"район Нагатино-Садовники";"(499) 615-15-85";"cbs3uao@rambler.ru";"cbs3-uao.ru";"87036283";
18;"Государственное бюджетное учреждение культуры города Москвы «Центральная библиотечная система № 3 Южного административного округа», Библиотека № 269";"Даниловская набережная, дом 2, корпус 2";"37,644407";"55,708425";"Южный административный округ";"Даниловский район";"(499) 615-15-85";"cbs3uao@rambler.ru";"cbs3-uao.ru";"87036284";
19;"Государственное бюджетное учреждение культуры города Москвы «Центральная библиотечная система «Черёмушки», Детская библиотека № 9";"Тарусская улица, дом 14, корпус 2";"37,530297";"55,60447";"Юго-Западный административный округ";"район Ясенево";"(495) 429-05-55";"b219@cheremushky.ru";"cheremushky.ru";"87036285";
20;"Государственное бюджетное учреждение культуры города Москвы «Центральная универсальная научная библиотека имени Н.А. Некрасова»";"Бауманская улица, дом 58/25, строение 14";"37,678615";"55,767117";"Центральный административный округ";"Басманный район";"(495) 916-90-68";"nekrasovka2006@yandex.ru";"nekrasovka.ru";"87035970";
21;"Государственное бюджетное учреждение культуры города Москвы «Дом Н.В. Гоголя - мемориальный музей и научная библиотека»";"Никитский бульвар, дом 7А";"37,599814";"55,754138";"Центральный административный округ";"район Арбат";"(495) 691-15-50";"gogoltheatre.ru";"domgogolya.ru";"87035971";
22;"Государственное бюджетное учреждение культуры города Москвы «Центральная городская юношеская библиотека имени М.А. Светлова»";"Большая Садовая улица, дом 1";"37,590605";"55,766319";"Центральный административный округ";"Пресненский район";"(495) 650-49-83";"svetlovka@inbox.ru";"svetlovka.ru";"87035972";
23;"Государственное бюджетное учреждение культуры города Москвы «Центральная городская детская библиотека имени А.П. Гайдара»";"Ростовская набережная, дом 5";"37,574919";"55,742204";"Центральный административный округ";"район Хамовники";"(499) 248-66-17";"lib@gaidarovka.ru";"gaidarovka.ru";"87035973";
24;"Государственное бюджетное учреждение культуры города Москвы «Центральная библиотечная система № 1 Центрального административного округа», Детская библиотека № 6";"Чистопрудный бульвар, дом 19/1, строение 3";"37,645862";"55,761788";"Центральный административный округ";"Басманный район";"(499) 261-35-05; (499) 267-57-20";"cb112pushkin@mail.ru";"";"87035974";
25;"Государственное бюджетное учреждение культуры города Москвы «Центральная библиотечная система № 1 Центрального административного округа», Библиотека № 7 имени В.А. Жуковского";"Лялин переулок, дом 24/26, строение 2";"37,653166";"55,756835";"Центральный административный округ";"Басманный район";"(499) 261-35-05; (499) 267-57-20";"cb112pushkin@mail.ru";"";"87035975";
26;"Государственное бюджетное учреждение культуры города Москвы «Центральная библиотечная система № 1 Центрального административного округа», Библиотека № 8 имени Ф.М. Достоевского";"Чистопрудный бульвар, дом 23, строение 1";"37,646776";"55,760306";"Центральный административный округ";"Басманный район";"(499) 261-35-05; (499) 267-57-20";"cb112pushkin@mail.ru";"";"87035976";
27;"Государственное бюджетное учреждение культуры города Москвы «Центральная библиотечная система № 1 Центрального административного округа», Библиотека № 12 имени Н.Ф. Погодина";"улица Госпитальный вал, дом 5, строение 2";"37,70918";"55,773483";"Центральный административный округ";"Басманный район";"(499) 261-35-05; (499) 267-57-20";"cb112pushkin@mail.ru";"";"87035977";
28;"Государственное бюджетное учреждение культуры города Москвы «Центральная библиотечная система № 1 Центрального административного округа», Детская библиотека № 60 имени А.С. Пушкина";"Большая Почтовая улица, дом 16";"37,692687";"55,775816";"Центральный административный округ";"Басманный район";"(499) 261-35-05; (499) 267-57-20";"cb112pushkin@mail.ru";"";"87035978";
29;"Государственное бюджетное учреждение культуры города Москвы «Центральная библиотечная система № 1 Центрального административного округа», Центральная детская библиотека № 61 имени Г.А. Усиевича";"Аптекарский переулок, дом 8/2, строение 1";"37,676457";"55,767961";"Центральный административный округ";"Басманный район";"(499) 261-35-05; (499) 267-57-20";"cb112pushkin@mail.ru";"";"87035979";
30;"Государственное бюджетное учреждение культуры города Москвы «Центральная библиотечная система № 1 Центрального административного округа», Детская библиотека № 71";"Дурасовский переулок, дом 9";"37,651136";"55,754822";"Центральный административный округ";"Басманный район";"(499) 261-35-05; (499) 267-57-20";"cb112pushkin@mail.ru";"";"87035980";
31;"Государственное бюджетное учреждение культуры города Москвы «Центральная библиотечная система № 3 Центрального административного округа», Детская библиотека № 23 имени М. Горького";"улица Новый Арбат, дом 30/9";"37,582166";"55,752894";"Центральный административный округ";"район Арбат";"(499) 241-13-02; (495) 241-29-04";"director@hamovniki.net";"cbs.hamovniki.net";"87035991";
32;"Государственное бюджетное учреждение культуры города Москвы «Центральная библиотечная система № 3 Центрального административного округа», Библиотека № 25 имени Е.А. Фурцевой";"Фрунзенская набережная, дом 50";"37,576874";"55,717888";"Центральный административный округ";"район Хамовники";"(499) 241-13-02; (495) 241-29-04";"director@hamovniki.net";"cbs.hamovniki.net";"87035992";
33;"Государственное бюджетное учреждение культуры города Москвы «Центральная библиотечная система № 3 Центрального административного округа», Библиотека № 28 имени В.В. Вересаева";"Ружейный переулок, дом 4, строение 1";"37,580853";"55,743556";"Центральный административный округ";"район Хамовники";"(499) 241-13-02; (495) 241-29-04";"director@hamovniki.net";"cbs.hamovniki.net";"87035993";
34;"Государственное бюджетное учреждение культуры города Москвы «Центральная библиотечная система № 3 Центрального административного округа», Центральная библиотека № 36 имени Н.А. Добролюбова";"Смоленская площадь, дом 13/21";"37,582091";"55,749288";"Центральный административный округ";"район Арбат";"(499) 241-13-02; (495) 241-29-04";"director@hamovniki.net";"cbs.hamovniki.net";"87035994";
35;"Государственное бюджетное учреждение культуры города Москвы «Центральная библиотечная система № 3 Центрального административного округа», Библиотека № 27 имени Волошина";"Новодевичий проезд, дом 10";"37,557481";"55,729875";"Центральный административный округ";"район Хамовники";"(499) 241-13-02; (495) 241-29-04";"director@hamovniki.net";"cbs.hamovniki.net";"87035995";
36;"Государственное бюджетное учреждение культуры города Москвы «Центральная библиотечная система № 3 Центрального административного округа», Библиотека семейного чтения";"Большой Афанасьевский переулок, дом 35-37";"37,595997";"55,749457";"Центральный административный округ";"район Арбат";"(499) 241-13-02; (495) 241-29-04";"director@hamovniki.net";"cbs.hamovniki.net";"87035996";
37;"Государственное бюджетное учреждение культуры города Москвы «Центральная библиотечная система № 4 Центрального административного округа», Центральная детская библиотека имени Братьев Гримм";"Нововаганьковский переулок, дом 22";"37,564485";"55,759379";"Центральный административный округ";"Пресненский район";"(499) 253-81-59";"cbs4cao@mail.ru";"cbs4you.ru";"87035997";
38;"Государственное бюджетное учреждение культуры города Москвы «Центральная библиотечная система № 4 Центрального административного округа», Детская библиотека-филиал № 25";"Красногвардейский бульвар, дом 1";"37,542631";"55,758057";"Центральный административный округ";"Пресненский район";"(499) 253-81-59";"cbs4cao@mail.ru";"cbs4you.ru";"87035998";
39;"Государственное бюджетное учреждение культуры города Москвы «Центральная библиотечная система № 4 Центрального административного округа», Детская библиотека-филиал № 29";"Шмитовский проезд, дом 46, корпус 2";"37,519999";"55,756124";"Центральный административный округ";"Пресненский район";"(499) 253-81-59";"cbs4cao@mail.ru";"cbs4you.ru";"87035999";
40;"Государственное бюджетное учреждение культуры города Москвы «Центральная библиотечная система № 4 Центрального административного округа», Библиотека-филиал № 43 имени А.М. Горького";"Стрельбищенский переулок, дом 5, строение 3";"37,536884";"55,758434";"Центральный административный округ";"Пресненский район";"(499) 253-81-59";"cbs4cao@mail.ru";"cbs4you.ru";"87036000";
41;"Государственное бюджетное учреждение культуры города Москвы «Центральная библиотечная система № 4 Центрального административного округа», Центральная библиотека № 46 имени Н.В. Гоголя";"Большая Грузинская улица, дом 39, строение 1";"37,581513";"55,770547";"Центральный административный округ";"Пресненский район";"(499) 253-81-59";"cbs4cao@mail.ru";"cbs4you.ru";"87036001";
42;"Государственное бюджетное учреждение культуры города Москвы «Центральная библиотечная система № 4 Центрального административного округа», Библиотека-филиал № 47";"Стрельбищенский переулок, дом 25";"37,540256";"55,764255";"Центральный административный округ";"Пресненский район";"(499) 253-81-59";"cbs4cao@mail.ru";"cbs4you.ru";"87036002";
43;"Государственное бюджетное учреждение культуры города Москвы «Центральная библиотечная система № 4 Центрального административного округа», Библиотека-филиал № 48";"Мукомольный проезд, дом 9, корпус 2";"37,522629";"55,753641";"Центральный административный округ";"Пресненский район";"(499) 253-81-59";"cbs4cao@mail.ru";"cbs4you.ru";"87036003";
44;"Государственное бюджетное учреждение культуры города Москвы «Центральная библиотечная система № 4 Центрального административного округа», Библиотека имени И.А. Бунина";"улица 1905 года, дом 3";"37,557824";"55,758338";"Центральный административный округ";"Пресненский район";"(499) 253-81-59";"cbs4cao@mail.ru";"cbs4you.ru";"87036004";
45;"Государственное бюджетное учреждение культуры города Москвы «Центральная библиотечная система № 4 Центрального административного округа», Детская библиотека-филиал № 152";"Большой Тишинский переулок, дом 24, строение 1";"37,574005";"55,769259";"Центральный административный округ";"Пресненский район";"(499) 253-81-59";"cbs4cao@mail.ru";"cbs4you.ru";"87036005";
46;"Государственное бюджетное учреждение культуры города Москвы «Центральная библиотечная система № 5 Центрального административного округа», Детская библиотека № 8 имени Н.А. Некрасова";"Космодамианская набережная, дом 4/22, корпус В";"37,638827";"55,745099";"Центральный административный округ";"район Замоскворечье";"(495) 951-60-78";"cbs5@yandex.ru";"cbs5.ru";"87036006";
47;"Государственное бюджетное учреждение культуры города Москвы «Центральная библиотечная система № 5 Центрального административного округа», Центральная детская библиотека № 10 имени А.Н. Радищева";"улица Бахрушина, дом 4, строение 1";"37,634001";"55,736462";"Центральный административный округ";"район Замоскворечье";"(495) 951-60-78";"cbs5@yandex.ru";"cbs5.ru";"87036007";
48;"Государственное бюджетное учреждение культуры города Москвы «Центральная библиотечная система № 5 Центрального административного округа», Библиотека семейного чтения имени А. Сент-Экзюпери";"2-й Красносельский переулок, дом 2";"37,665075";"55,782304";"Центральный административный округ";"Красносельский район";"(495) 951-60-78";"cbs5@yandex.ru";"cbs5.ru";"87036008";
49;"Государственное бюджетное учреждение культуры города Москвы «Центральная библиотечная система № 5 Центрального административного округа», Центральная библиотека № 21 имени Н.Г. Чернышевского";"Большая Татарская улица, дом 32";"37,633126";"55,738337";"Центральный административный округ";"район Замоскворечье";"(495) 951-60-78";"cbs5@yandex.ru";"cbs5.ru";"87036009";
50;"Государственное бюджетное учреждение культуры города Москвы «Центральная библиотечная система № 5 Центрального административного округа», Детская библиотека № 56 имени А.П. Чехова";"Большая Спасская улица, дом 31";"37,644192";"55,776469";"Центральный административный округ";"Красносельский район";"(495) 951-60-78";"cbs5@yandex.ru";"cbs5.ru";"87036010";
51;"Государственное бюджетное учреждение культуры города Москвы «Центральная библиотечная система № 5 Центрального административного округа», Детская библиотека № 90";"Дубининская улица, дом 20, строение 1";"37,636547";"55,726256";"Центральный административный округ";"район Замоскворечье";"(495) 951-60-78";"cbs5@yandex.ru";"cbs5.ru";"87036011";
52;"Государственное бюджетное учреждение культуры города Москвы «Центральная библиотечная система № 5 Центрального административного округа», Библиотека № 106";"Русаковская улица, дом 8";"37,673618";"55,781711";"Центральный административный округ";"Красносельский район";"(495) 951-60-78";"cbs5@yandex.ru";"cbs5.ru";"87036012";
53;"Государственное бюджетное учреждение культуры города Москвы «Центральная библиотечная система № 1 Центрального административного округа», Центральная библиотека № 112 имени А.С. Пушкина";"Спартаковская улица, дом 9, строение 1";"37,672486";"55,772039";"Центральный административный округ";"Басманный район";"(499) 261-35-05; (499) 267-57-20";"cb112pushkin@mail.ru";"";"87035981";
54;"Государственное бюджетное учреждение культуры города Москвы «Центральная библиотечная система № 1 Центрального административного округа», Библиотека имени А.А. Дельвига";"Большая Почтовая улица, дом 18/20, корпус 18А, строение 18";"37,690186";"55,774275";"Центральный административный округ";"Басманный район";"(499) 261-35-05; (499) 267-57-20";"cb112pushkin@mail.ru";"";"87035982";
55;"Государственное бюджетное учреждение культуры города Москвы «Центральная библиотечная система № 2 Центрального административного округа», Библиотека № 3 «Социально-правовая»";"Банный переулок, дом 4, строение 2";"37,637785";"55,785694";"Центральный административный округ";"Мещанский район";"(495) 680-58-83; (495) 680-58-01";"director@cbs2cao.ru";"cbs2cao.ru";"87035983";
56;"Государственное бюджетное учреждение культуры города Москвы «Центральная библиотечная система № 2 Центрального административного округа», Библиотека имени Ю.В.Трифонова";"4-я Тверская-Ямская улица, дом 26/8";"37,594075";"55,77443";"Центральный административный округ";"Тверской район";"(495) 680-58-83; (495) 680-58-01";"director@cbs2cao.ru";"cbs2cao.ru";"87035984";
57;"Государственное бюджетное учреждение культуры города Москвы «Центральная библиотечная система № 2 Центрального административного округа», Центральная детская библиотека № 46 имени А.С. Грибоедова";"улица Сущевский вал, дом 66";"37,627791";"55,792145";"Центральный административный округ";"Мещанский район";"(495) 680-58-83; (495) 680-58-01";"director@cbs2cao.ru";"cbs2cao.ru";"87035985";
58;"Государственное бюджетное учреждение культуры города Москвы «Центральная библиотечная система № 2 Центрального административного округа», Детская библиотека имени Х.К. Андерсена";"проспект Мира, дом 68";"37,635434";"55,786897";"Центральный административный округ";"Мещанский район";"(495) 680-58-83; (495) 680-58-01";"director@cbs2cao.ru";"cbs2cao.ru";"87035986";
59;"Государственное бюджетное учреждение культуры города Москвы «Центральная библиотечная система № 2 Центрального административного округа», Библиотека № 74 «Экономика и бизнес»";"Лесная улица, дом 63, строение 1";"37,595702";"55,783695";"Центральный административный округ";"Тверской район";"(495) 680-58-83; (495) 680-58-01";"director@cbs2cao.ru";"cbs2cao.ru";"87035987";
60;"Государственное бюджетное учреждение культуры города Москвы «Центральная библиотечная система № 2 Центрального административного округа», Центральная библиотека № 88 имени А.С. Грибоедова";"Большая Переяславская, дом 15";"37,640222";"55,786361";"Центральный административный округ";"Мещанский район";"(495) 680-58-83; (495) 680-58-01";"director@cbs2cao.ru";"cbs2cao.ru";"87035988";
61;"Государственное бюджетное учреждение культуры города Москвы «Центральная библиотечная система № 3 Центрального административного округа», Центральная детская библиотека № 13 имени Н.К. Крупской";"улица Пречистенка, дом 36, строение 2";"37,58878";"55,739874";"Центральный административный округ";"район Хамовники";"(499) 241-13-02; (495) 241-29-04";"director@hamovniki.net";"cbs.hamovniki.net";"87035989";
62;"Государственное бюджетное учреждение культуры города Москвы «Центральная библиотечная система № 3 Центрального административного округа», Детская библиотека № 15";"Глазовский переулок, дом 4, строение 8";"37,587726";"55,744212";"Центральный административный округ";"район Хамовники";"(499) 241-13-02; (495) 241-29-04";"director@hamovniki.net";"cbs.hamovniki.net";"87035990";
63;"Государственное бюджетное учреждение культуры города Москвы «Центральная библиотечная система «Книгоград» Северного административного округа», Центральная детская библиотека № 40 имени И.З. Сурикова";"Михалковская улица, дом 15";"37,526176";"55,839573";"Северный административный округ";"район Коптево";"(499) 154-10-12";"cbs3sao@mail.ru";"cbs3sao.ru";"87036059";
64;"Государственное бюджетное учреждение культуры города Москвы «Центральная библиотечная система «Книгоград» Северного административного округа», Детская библиотека № 44";"Новопетровская улица, дом 16А";"37,523205";"55,826474";"Северный административный округ";"район Коптево";"(499) 154-10-12";"cbs3sao@mail.ru";"cbs3sao.ru";"87036060";
65;"Государственное бюджетное учреждение культуры города Москвы «Центральная библиотечная система «Книгоград» Северного административного округа», Детская библиотека № 117";"Весенняя улица, дом 8";"37,516972";"55,873084";"Северный административный округ";"район Западное Дегунино";"(499) 154-10-12";"cbs3sao@mail.ru";"cbs3sao.ru";"87036061";
66;"Государственное бюджетное учреждение культуры города Москвы «Центральная библиотечная система «Книгоград» Северного административного округа», Библиотека № 261";"Весенняя улица, дом 8";"37,516972";"55,873084";"Северный административный округ";"район Западное Дегунино";"(499) 154-10-12";"cbs3sao@mail.ru";"cbs3sao.ru";"87036062";
67;"Государственное бюджетное учреждение культуры города Москвы «Центральная библиотечная система «Кругозор» Северного административного округа», Детская библиотека-филиал № 37";"Балтийская улица, дом 4";"37,512941";"55,807124";"Северный административный округ";"район Аэропорт";"(495) 450-68-00";"bib63@bk.ru";"cbs-krugozor.ru";"87036063";
68;"Государственное бюджетное учреждение культуры города Москвы «Центральная библиотечная система «Кругозор» Северного административного округа», Пункт выдачи детской библиотеки-филиала № 37";"улица Зорге, дом 36";"37,503437";"55,796875";"Северный административный округ";"район Сокол";"(495) 450-68-00";"bib63@bk.ru";"cbs-krugozor.ru";"87036064";
69;"Государственное бюджетное учреждение культуры города Москвы «Центральная библиотечная система «Кругозор» Северного административного округа», Библиотека-филиал № 59 имени Назыма Хикмета";"Новопесчаная улица, дом 23, корпус 7";"37,512941";"55,792963";"Северный административный округ";"район Сокол";"(495) 450-68-00";"bib63@bk.ru";"cbs-krugozor.ru";"87036065";
70;"Государственное бюджетное учреждение культуры города Москвы «Центральная библиотечная система «Кругозор» Северного административного округа», Библиотека-филиал № 60 имени Вс. Иванова";"улица Врубеля, дом 13";"37,497921";"55,803713";"Северный административный округ";"район Сокол";"(495) 450-68-00";"bib63@bk.ru";"cbs-krugozor.ru";"87036066";
71;"Государственное бюджетное учреждение культуры города Москвы «Центральная библиотечная система «Кругозор» Северного административного округа», Центральная библиотека № 63 имени Г. Николаевой";"улица Клары Цеткин, дом 11";"37,516838";"55,819003";"Северный административный округ";"Войковский район";"(495) 450-68-00";"bib63@bk.ru";"cbs-krugozor.ru";"87036067";
72;"Государственное бюджетное учреждение культуры города Москвы «Центральная библиотечная система «Кругозор» Северного административного округа», Библиотека-филиал № 69";"Ленинградское шоссе, дом 114";"37,463915";"55,866035";"Северный административный округ";"район Левобережный";"(495) 450-68-00";"bib63@bk.ru";"cbs-krugozor.ru";"87036068";
73;"Государственное бюджетное учреждение культуры города Москвы «Центральная библиотечная система «Кругозор» Северного административного округа», Библиотека-филиал № 70";"Фестивальная улица, дом 67";"37,501297";"55,862042";"Северный административный округ";"район Ховрино";"(495) 450-68-00";"bib63@bk.ru";"cbs-krugozor.ru";"87036069";
74;"Государственное бюджетное учреждение культуры города Москвы «Центральная библиотечная система «Кругозор» Северного административного округа», Центральная детская библиотека № 105 имени Льва Кассиля";"Ленинградское шоссе, дом 120";"37,462886";"55,867641";"Северный административный округ";"район Левобережный";"(495) 450-68-00";"bib63@bk.ru";"cbs-krugozor.ru";"87036070";
75;"Государственное бюджетное учреждение культуры города Москвы «Центральная библиотечная система «Кругозор» Северного административного округа», Библиотека-филиал № 131";"Фестивальная улица, дом 67";"37,501297";"55,862042";"Северный административный округ";"район Ховрино";"(495) 450-68-00";"bib63@bk.ru";"cbs-krugozor.ru";"87036071";
76;"Государственное бюджетное учреждение культуры города Москвы «Центральная библиотечная система «Кругозор» Северного административного округа», Детская библиотека-филиал № 135";"улица Космонавта Волкова, дом 3";"37,505859";"55,815823";"Северный административный округ";"Войковский район";"(495) 450-68-00";"bib63@bk.ru";"cbs-krugozor.ru";"87036072";
77;"Государственное бюджетное учреждение культуры города Москвы «Центральная библиотечная система «Кругозор» Северного административного округа», Библиотека-филиал № 190";"Зеленоградская улица, дом 27А";"37,493887";"55,874493";"Северный административный округ";"район Ховрино";"(495) 450-68-00";"bib63@bk.ru";"cbs-krugozor.ru";"87036073";
78;"Государственное бюджетное учреждение культуры города Москвы «Центральная библиотечная система «Кругозор» Северного административного округа», Библиотека-филиала № 270";"улица Алабяна, дом 12, корпус 4";"37,501738";"55,799957";"Северный административный округ";"район Сокол";"(495) 450-68-00";"bib63@bk.ru";"cbs-krugozor.ru";"87036074";
79;"Государственное бюджетное учреждение культуры города Москвы «Библиотека - информационный интеллект-центр «Познание» Северного административного округа»";"Дмитровское шоссе, дом 25, корпус 1";"37,571042";"55,824265";"Северный административный округ";"Тимирязевский район";"(499) 976-75-09; (499) 976-77-72";"ipoznanie@mail.ru";"library84.ru";"87036075";
80;"Государственное бюджетное учреждение культуры города Москвы «Детская библиотека информационный интеллект-центр «Книжкин дом»";"1-я Хуторская улица, дом 2, корпус 2";"37,566883";"55,802048";"Северный административный округ";"Савёловский район";"(495) 613-25-09";"45biblioteka@mail.ru; khokhlovazh@mail.ru";"cbs3sao.ru";"87036076";
81;"Государственное бюджетное учреждение культуры города Москвы «Детская библиотека имени Максима Горького Северного административного округа»";"Вятская улица, дом 3";"37,581684";"55,793678";"Северный административный округ";"Савёловский район";"(495) 685-66-10";"bibliochild-mg@mail.ru";"cbs3sao.ru/samostoyatelnye-biblioteki/detskaya-biblioteka-42-im-gorkogo/";"87036077";
82;"Государственное бюджетное учреждение культуры города Москвы «Центральная Городская Деловая Библиотека»";"улица Бориса Галушкина, дом 19, корпус 1";"37,661285";"55,82254";"Северо-Восточный административный округ";"Алексеевский район";"(495) 683-56-46";"mgdb@mgdb.ru";"mgdb.ru";"87036078";
83;"Государственное бюджетное учреждение культуры города Москвы «Центральная библиотечная система № 1 Северо-Восточного административного округа», Библиотека № 38";"Шереметьевская улица, дом 5, корпус 1";"37,615444";"55,79487";"Северо-Восточный административный округ";"район Марьина Роща";"(495) 405-41-55";"info@cbs1svao.ru";"cbs1svao.ru";"87036079";
84;"Государственное бюджетное учреждение культуры города Москвы «Центральная библиотечная система № 1 Северо-Восточного административного округа», Библиотека № 39";"Северодвинская улица, дом 11 корпус 2";"37,678148";"55,890181";"Северо-Восточный административный округ";"район Северное Медведково";"(495) 405-41-55";"info@cbs1svao.ru";"cbs1svao.ru";"87036080";
85;"Государственное бюджетное учреждение культуры города Москвы «Центральная библиотечная система № 1 Северо-Восточного административного округа», Библиотека № 56";"Алтуфьевское шоссе, дом 102Б";"37,591349";"55,90297";"Северо-Восточный административный округ";"район Бибирево";"(495) 405-41-55";"info@cbs1svao.ru";"cbs1svao.ru";"87036081";
86;"Государственное бюджетное учреждение культуры города Москвы «Центральная библиотечная система № 1 Северо-Восточного административного округа», Детская библиотека № 58";"улица Римского-Корсакова, дом 16";"37,60633";"55,873891";"Северо-Восточный административный округ";"район Отрадное";"(495) 405-41-55";"info@cbs1svao.ru";"cbs1svao.ru";"87036082";
87;"Государственное бюджетное учреждение культуры города Москвы «Центральная библиотечная система № 1 Северо-Восточного административного округа», Библиотека № 72";"Шереметьевская улица, дом 5, корпус 1";"37,615444";"55,79487";"Северо-Восточный административный округ";"район Марьина Роща";"(495) 405-41-55";"info@cbs1svao.ru";"cbs1svao.ru";"87036083";
88;"Государственное бюджетное учреждение культуры города Москвы «Центральная библиотечная система № 1 Северо-Восточного административного округа», Библиотека № 77";"улица Коненкова, дом 23";"37,610781";"55,894701";"Северо-Восточный административный округ";"район Бибирево";"(495) 405-41-55";"info@cbs1svao.ru";"cbs1svao.ru";"87036084";
89;"Государственное бюджетное учреждение культуры города Москвы «Центральная библиотечная система № 1 Северо-Восточного административного округа», Библиотека № 82";"улица Яблочкова, дом 41";"37,578523";"55,82823";"Северо-Восточный административный округ";"Бутырский район";"(495) 405-41-55";"info@cbs1svao.ru";"cbs1svao.ru";"87036085";
90;"Государственное бюджетное учреждение культуры города Москвы «Центральная библиотечная система № 1 Северо-Восточного административного округа», Библиотека № 89";"Широкая улица, дом 11";"37,660985";"55,888282";"Северо-Восточный административный округ";"район Северное Медведково";"(495) 405-41-55";"info@cbs1svao.ru";"cbs1svao.ru";"87036086";
91;"Государственное бюджетное учреждение культуры города Москвы «Центральная библиотечная система № 1 Северо-Восточного административного округа», Библиотека № 91";"Алтуфьевское шоссе, дом 34А";"37,587493";"55,867536";"Северо-Восточный административный округ";"район Отрадное";"(495) 405-41-55";"info@cbs1svao.ru";"cbs1svao.ru";"87036087";
92;"Государственное бюджетное учреждение культуры города Москвы «Центральная библиотечная система № 1 Северо-Восточного административного округа», Библиотека № 99";"улица Корнейчука, дом 40";"37,629019";"55,897588";"Северо-Восточный административный округ";"район Бибирево";"(495) 405-41-55";"info@cbs1svao.ru";"cbs1svao.ru";"87036088";
93;"Государственное бюджетное учреждение культуры города Москвы «Центральная библиотечная система № 1 Северо-Восточного административного округа», Детская библиотека № 107";"6-я Северная линия, дом 1";"37,552307";"55,937641";"Северо-Восточный административный округ";"район Северный";"(495) 405-41-55";"info@cbs1svao.ru";"cbs1svao.ru";"87036089";
94;"Государственное бюджетное учреждение культуры города Москвы «Центральная библиотечная система № 1 Северо-Восточного административного округа», Библиотека № 113";"Полярная улица, дом 26, корпус 1";"37,639666";"55,881343";"Северо-Восточный административный округ";"район Северное Медведково";"(495) 405-41-55";"info@cbs1svao.ru";"cbs1svao.ru";"87036090";
95;"Государственное бюджетное учреждение культуры города Москвы «Центральная библиотечная система № 1 Северо-Восточного административного округа», Библиотека № 144";"улица Корнейчука, дом 59";"37,624334";"55,891034";"Северо-Восточный административный округ";"район Бибирево";"(495) 405-41-55";"info@cbs1svao.ru";"cbs1svao.ru";"87036091";
96;"Государственное бюджетное учреждение культуры города Москвы «Центральная библиотечная система № 1 Северо-Восточного административного округа», Библиотека № 160";"улица Коненкова, дом 23";"37,610781";"55,894701";"Северо-Восточный административный округ";"район Бибирево";"(495) 405-41-55";"info@cbs1svao.ru";"cbs1svao.ru";"87036092";
97;"Государственное бюджетное учреждение культуры города Москвы «Центральная библиотечная система № 1 Северо-Восточного административного округа», Библиотека № 184";"улица Коненкова, дом 23";"37,610781";"55,894701";"Северо-Восточный административный округ";"район Бибирево";"(495) 405-41-55";"info@cbs1svao.ru";"cbs1svao.ru";"87036093";
98;"Государственное бюджетное учреждение культуры города Москвы «Центральная библиотечная система № 1 Северо-Восточного административного округа», Библиотека № 200";"Полярная улица, дом 15, корпус 1";"37,636142";"55,875384";"Северо-Восточный административный округ";"район Южное Медведково";"(495) 405-41-55";"info@cbs1svao.ru";"cbs1svao.ru";"87036094";
99;"Государственное бюджетное учреждение культуры города Москвы «Центральная библиотечная система № 1 Северо-Восточного административного округа», Библиотека № 201";"улица Гончарова, дом 17, корпус 4";"37,589962";"55,816602";"Северо-Восточный административный округ";"Бутырский район";"(495) 405-41-55";"info@cbs1svao.ru";"cbs1svao.ru";"87036095";
100;"Государственное бюджетное учреждение культуры города Москвы «Центральная библиотечная система № 1 Северо-Восточного административного округа», Библиотека № 206";"Путевой проезд, дом 38А";"37,572";"55,877473";"Северо-Восточный административный округ";"Алтуфьевский район";"(495) 405-41-55";"info@cbs1svao.ru";"cbs1svao.ru";"87036096";
101;"Государственное бюджетное учреждение культуры города Москвы «Центральная библиотечная система № 1 Северо-Восточного административного округа», Библиотека № 207";"2-я Северная линия, дом 7";"37,555108";"55,942632";"Северо-Восточный административный округ";"район Северный";"(495) 405-41-55";"info@cbs1svao.ru";"cbs1svao.ru";"87036097";
102;"Государственное бюджетное учреждение культуры города Москвы «Центральная библиотечная система № 1 Северо-Восточного административного округа», Библиотека № 231";"улица Академика Комарова, дом 8";"37,591603";"55,830156";"Северо-Восточный административный округ";"район Марфино";"(495) 405-41-55";"info@cbs1svao.ru";"cbs1svao.ru";"87036098";
103;"Государственное бюджетное учреждение культуры города Москвы «Центральная библиотечная система № 2 Северо-Восточного административного округа», Библиотека № 5";"Ярославское шоссе, дом 6, корпус 1";"37,682104";"55,852268";"Северо-Восточный административный округ";"Ярославский район";"(495) 470-42-47";"lib110@yandex.ru";"biblioterra.ru";"87036099";
104;"Государственное бюджетное учреждение культуры города Москвы «Центральная библиотечная система № 2 Северо-Восточного административного округа», Библиотека № 49";"Челюскинская улица, дом 2";"37,700948";"55,878819";"Северо-Восточный административный округ";"Лосиноостровский район";"(495) 470-42-47";"lib110@yandex.ru";"biblioterra.ru";"87036100";
105;"Государственное бюджетное учреждение культуры города Москвы «Центральная библиотечная система № 2 Северо-Восточного административного округа», Детская библиотека № 50";"проспект Мира, дом 198, корпус 2";"37,662004";"55,837266";"Северо-Восточный административный округ";"район Ростокино";"(495) 470-42-47";"lib110@yandex.ru";"biblioterra.ru";"87036101";
106;"Государственное бюджетное учреждение культуры города Москвы «Центральная библиотечная система № 2 Северо-Восточного административного округа», Библиотека № 52";"улица Коминтерна, дом 6";"37,676102";"55,861509";"Северо-Восточный административный округ";"Бабушкинский район";"(495) 470-42-47";"lib110@yandex.ru";"biblioterra.ru";"87036102";
107;"Государственное бюджетное учреждение культуры города Москвы «Центральная библиотечная система № 2 Северо-Восточного административного округа», Библиотека № 86";"улица Седова, дом 3";"37,643123";"55,851184";"Северо-Восточный административный округ";"район Свиблово";"(495) 470-42-47";"lib110@yandex.ru";"biblioterra.ru";"87036103";
108;"Государственное бюджетное учреждение культуры города Москвы «Центральная библиотечная система № 7 Центрального административного округа», Центральная детская библиотека № 78";"Абельмановская улица, дом 11";"37,671397";"55,735306";"Центральный административный округ";"Таганский район";"(495) 911-84-60";"cbs7cao@mail.ru";"cbs7cao.ru";"87036013";
109;"Государственное бюджетное учреждение культуры города Москвы «Центральная библиотечная система № 7 Центрального административного округа», ОИПЦ, Библиотека префекта Центрального административного округа";"Новоспасский переулок, дом 5";"37,65434";"55,733813";"Центральный административный округ";"Таганский район";"(495) 911-84-60";"cbs7cao@mail.ru";"cbs7cao.ru";"87036014";
110;"Государственное бюджетное учреждение культуры города Москвы «Центральная библиотечная система № 7 Центрального административного округа», Центральная библиотека № 132 имени М.Н. Покровского";"Большой Факельный переулок, дом 3";"37,664298";"55,742065";"Центральный административный округ";"Таганский район";"(495) 911-84-60";"cbs7cao@mail.ru";"cbs7cao.ru";"87036015";
111;"Государственное бюджетное учреждение культуры города Москвы «Центральная библиотечная система № 7 Центрального административного округа», Библиотека № 134";"Волгоградский проспект, дом 16";"37,675521";"55,728837";"Центральный административный округ";"Таганский район";"(495) 911-84-60";"cbs7cao@mail.ru";"cbs7cao.ru";"87036016";
112;"Государственное бюджетное учреждение культуры города Москвы «Центральная библиотечная система № 7 Центрального административного округа», Библиотека № 138";"Малая Калитниковская улица, дом 22";"37,684245";"55,733336";"Центральный административный округ";"Таганский район";"(495) 911-84-60";"cbs7cao@mail.ru";"cbs7cao.ru";"87036017";
113;"Государственное бюджетное учреждение культуры города Москвы «Центральная библиотечная система № 7 Центрального административного округа», Детская библиотека № 140";"Новорогожская улица, дом 5";"37,679896";"55,743087";"Центральный административный округ";"Таганский район";"(495) 911-84-60";"cbs7cao@mail.ru";"cbs7cao.ru";"87036018";
114;"Государственное бюджетное учреждение культуры города Москвы «Центральная библиотечная система № 7 Центрального административного округа», Нотно-музыкальная библиотека имени П.И. Юргенсона";"Николоямский переулок, дом 3А, корпус 4";"37,661492";"55,749574";"Центральный административный округ";"Таганский район";"(495) 911-84-60";"cbs7cao@mail.ru";"cbs7cao.ru";"87036019";
115;"Государственное бюджетное учреждение культуры города Москвы «Библиотека-читальня имени И.С. Тургенева»";"Бобров переулок, дом 6, строение 1";"37,634367";"55,765212";"Центральный административный округ";"Красносельский район";"(495) 625-03-81";"biblioteka@turgenev.ru";"turgenev.ru";"87036020";
116;"Государственное бюджетное учреждение культуры города Москвы «Библиотека имени А.П. Чехова»";"Страстной бульвар, дом 6, строение 2";"37,60931";"55,765651";"Центральный административный округ";"Тверской район";"(495) 692-83-97";"chehovka_5@mail.ru";"chehovka.ru";"87036021";
117;"Государственное бюджетное учреждение культуры города Москвы «Библиотека искусств имени А.П. Боголюбова»";"Сущевская улица, дом 14";"37,602437";"55,781388";"Центральный административный округ";"Тверской район";"(499) 973-14-94";"bogolubovlib@yandex.ru";"bogolublib.ru";"87036022";
118;"Государственное бюджетное учреждение культуры города Москвы «Библиотека киноискусства имени С.М. Эйзенштейна»";"улица Каретный ряд, дом 5/10, строение 2";"37,6084";"55,772706";"Центральный административный округ";"Тверской район";"(495) 699-81-70; (495) 699-35-86";"cinema-lib@yandex.ru";"eisenstein.ru";"87036023";
119;"Государственное бюджетное учреждение культуры города Москвы «Библиотека истории русской философии и культуры «Дом А.Ф. Лосева»";"улица Арбат, дом 33/12, строение 1";"37,592393";"55,74955";"Центральный административный округ";"район Арбат";"(499) 252-86-59";"info_losevka@mail.ru";"losev-library.ru";"87036024";
120;"Государственное бюджетное учреждение культуры города Москвы «Библиотека украинской литературы»";"Трифоновская улица, дом 61 корпус 1";"37,632641";"55,790212";"Центральный административный округ";"Мещанский район";"(495) 631-38-30";"libukrmoscow@yandex.ru";"mosbul.ru";"87036025";
121;"Государственное бюджетное учреждение культуры города Москвы «Центральная библиотечная система № 1 Северного административного округа», Библиотека № 43";"Астрадамская улица, дом 4";"37,565892";"55,811778";"Северный административный округ";"Тимирязевский район";"(499) 798-44-76";"cbs1sao@mail.ru; info@cbs1sao.ru";"cbs1sao.ru";"87036026";
122;"Государственное бюджетное учреждение культуры города Москвы «Центральная библиотечная система № 1 Северного административного округа», Библиотека № 61";"улица Правды, дом 11";"37,578212";"55,785873";"Северный административный округ";"район Беговой";"(499) 798-44-76";"cbs1sao@mail.ru; info@cbs1sao.ru";"cbs1sao.ru";"87036027";
123;"Государственное бюджетное учреждение культуры города Москвы «Центральная библиотечная система № 1 Северного административного округа», Библиотека № 71";"Дубнинская улица, дом 6, корпус 1";"37,570368";"55,858955";"Северный административный округ";"район Восточное Дегунино";"(499) 798-44-76";"cbs1sao@mail.ru; info@cbs1sao.ru";"cbs1sao.ru";"87036028";
124;"Государственное бюджетное учреждение культуры города Москвы «Центральная библиотечная система № 1 Северного административного округа», Библиотека № 75";"Тимиряевская улица, дом 17 корпус 1";"37,566719";"55,812288";"Северный административный округ";"Тимирязевский район";"(499) 798-44-76";"cbs1sao@mail.ru; info@cbs1sao.ru";"cbs1sao.ru";"87036029";
125;"Государственное бюджетное учреждение культуры города Москвы «Центральная библиотечная система № 1 Северного административного округа», Библиотека № 75, юношеский отдел";"Астрадамская улица, дом 4";"37,565892";"55,811778";"Северный административный округ";"Тимирязевский район";"(499) 798-44-76";"cbs1sao@mail.ru; info@cbs1sao.ru";"cbs1sao.ru";"87036030";
126;"Государственное бюджетное учреждение культуры города Москвы «Центральная библиотечная система № 1 Северного административного округа», Библиотека № 78";"Дмитровское шоссе, дом 50, корпус 1";"37,569514";"55,845144";"Северный административный округ";"Тимирязевский район";"(499) 798-44-76";"cbs1sao@mail.ru; info@cbs1sao.ru";"cbs1sao.ru";"87036031";
127;"Государственное бюджетное учреждение культуры города Москвы «Центральная библиотечная система № 1 Северного административного округа», Библиотека № 80";"Дмитровское шоссе, дом 39, корпус 1";"37,569464";"55,831423";"Северный административный округ";"Тимирязевский район";"(499) 798-44-76";"cbs1sao@mail.ru; info@cbs1sao.ru";"cbs1sao.ru";"87036032";
128;"Государственное бюджетное учреждение культуры города Москвы «Центральная библиотечная система № 1 Северного административного округа», Библиотека № 81";"улица Софьи Ковалевской, дом 8";"37,533094";"55,882601";"Северный административный округ";"Дмитровский район";"(499) 798-44-76";"cbs1sao@mail.ru; info@cbs1sao.ru";"cbs1sao.ru";"87036033";
129;"Государственное бюджетное учреждение культуры города Москвы «Центральная библиотечная система № 1 Северного административного округа», Библиотека № 83";"Башиловская улица, дом 3 корпус 1";"37,576421";"55,793789";"Северный административный округ";"Савёловский район";"(499) 798-44-76";"cbs1sao@mail.ru; info@cbs1sao.ru";"cbs1sao.ru";"87036034";
130;"Государственное бюджетное учреждение культуры города Москвы «Центральная библиотечная система № 1 Северного административного округа», Библиотека № 85";"Дмитровское шоссе, дом 66";"37,560773";"55,85801";"Северный административный округ";"Бескудниковский район";"(499) 798-44-76";"cbs1sao@mail.ru; info@cbs1sao.ru";"cbs1sao.ru";"87036035";
131;"Государственное бюджетное учреждение культуры города Москвы «Центральная библиотечная система № 1 Северного административного округа», Библиотека № 112";"улица Софьи Ковалевской, дом 10, корпус 1";"37,533047";"55,884411";"Северный административный округ";"Дмитровский район";"(499) 798-44-76";"cbs1sao@mail.ru; info@cbs1sao.ru";"cbs1sao.ru";"87036036";
132;"Государственное бюджетное учреждение культуры города Москвы «Центральная библиотечная система № 1 Северного административного округа», Центральная детская Библиотека № 133";"Дубнинская улица, дом 6, корпус 1";"37,570368";"55,858955";"Северный административный округ";"район Восточное Дегунино";"(499) 798-44-76";"cbs1sao@mail.ru; info@cbs1sao.ru";"cbs1sao.ru";"87036037";
133;"Государственное бюджетное учреждение культуры города Москвы «Центральная библиотечная система № 1 Северного административного округа», Детская библиотека № 149";"Дмитровское шоссе, дом 43, корпус 1";"37,571779";"55,832969";"Северный административный округ";"Тимирязевский район";"(499) 798-44-76";"cbs1sao@mail.ru; info@cbs1sao.ru";"cbs1sao.ru";"87036038";
134;"Государственное бюджетное учреждение культуры города Москвы «Центральная библиотечная система № 1 Северного административного округа», Детская Библиотека № 159";"Керамический проезд, дом 71/1";"37,562932";"55,889872";"Северный административный округ";"район Восточное Дегунино";"(499) 798-44-76";"cbs1sao@mail.ru; info@cbs1sao.ru";"cbs1sao.ru";"87036039";
135;"Государственное бюджетное учреждение культуры города Москвы «Центральная библиотечная система № 1 Северного административного округа», Библиотека № 196";"Коровинское шоссе, дом 22";"37,521539";"55,880942";"Северный административный округ";"Дмитровский район";"(499) 798-44-76";"cbs1sao@mail.ru; info@cbs1sao.ru";"cbs1sao.ru";"87036040";
136;"Государственное бюджетное учреждение культуры города Москвы «Центральная библиотечная система № 5 Северного административного округа», Библиотека № 227";"Дубнинская улица, дом 16, корпус 1";"37,562923";"55,868785";"Северный административный округ";"район Восточное Дегунино";"(499) 798-44-76";"cbs1sao@mail.ru; info@cbs1sao.ru";"cbs1sao.ru";"87036041";
137;"Государственное бюджетное учреждение культуры города Москвы «Центральная библиотечная система № 5 Северного административного округа», Центральная детская библиотека № 23";"улица Куусинена, дом 17, корпус 2";"37,511739";"55,785666";"Северный административный округ";"Хорошёвский район";"(495) 945-37-31";"cbs5sao@bk.ru";"cbs5.uksao.ru";"87036042";
138;"Государственное бюджетное учреждение культуры города Москвы «Центральная библиотечная система № 5 Северного административного округа», Детская библиотека № 32";"1-й Боткинский проезд, дом 4";"37,557023";"55,782997";"Северный административный округ";"район Беговой";"(495) 945-37-31";"cbs5sao@bk.ru";"cbs5.uksao.ru";"87036043";
139;"Государственное бюджетное учреждение культуры города Москвы «Центральная библиотечная система № 5 Северного административного округа», Центральная детская библиотека № 33";"улица Куусинена, дом 17, корпус 2";"37,511739";"55,785666";"Северный административный округ";"Хорошёвский район";"(495) 945-37-31";"cbs5sao@bk.ru";"cbs5.uksao.ru";"87036044";
140;"Государственное бюджетное учреждение культуры города Москвы «Центральная библиотечная система № 5 Северного административного округа», Детская библиотека № 34";"улица Усиевича, дом 23";"37,525138";"55,804947";"Северный административный округ";"район Аэропорт";"(495) 945-37-31";"cbs5sao@bk.ru";"cbs5.uksao.ru";"87036045";
141;"Государственное бюджетное учреждение культуры города Москвы «Центральная библиотечная система № 5 Северного административного округа», Детская библиотека № 36";"улица Степана Супруна, дом 12, корпус 3";"37,545613";"55,797497";"Северный административный округ";"район Аэропорт";"(495) 945-37-31";"cbs5sao@bk.ru";"cbs5.uksao.ru";"87036046";
142;"Государственное бюджетное учреждение культуры города Москвы «Центральная библиотечная система № 5 Северного административного округа», Библиотека № 62";"улица 8 Марта, дом 15";"37,549958";"55,804487";"Северный административный округ";"район Аэропорт";"(495) 945-37-31";"cbs5sao@bk.ru";"cbs5.uksao.ru";"87036047";
143;"Государственное бюджетное учреждение культуры города Москвы «Центральная библиотечная система № 5 Северного административного округа», Библиотека № 64";"улица Куусинена, дом 6, корпус 6";"37,517185";"55,781452";"Северный административный округ";"Хорошёвский район";"(495) 945-37-31";"cbs5sao@bk.ru";"cbs5.uksao.ru";"87036048";
144;"Государственное бюджетное учреждение культуры города Москвы «Центральная библиотечная система № 5 Северного административного округа», Центральная библиотека № 66";"Беговая улица, дом 13";"37,558237";"55,78063";"Северный административный округ";"район Беговой";"(495) 945-37-31";"cbs5sao@bk.ru";"cbs5.uksao.ru";"87036049";
145;"Государственное бюджетное учреждение культуры города Москвы «Центральная библиотечная система № 5 Северного административного округа», Библиотека № 67";"Хорошевское шоссе, дом 17";"37,531702";"55,775788";"Северный административный округ";"Хорошёвский район";"(495) 945-37-31";"cbs5sao@bk.ru";"cbs5.uksao.ru";"87036050";
146;"Государственное бюджетное учреждение культуры города Москвы «Центральная библиотечная система № 5 Северного административного округа», Библиотека № 68";"улица Усиевича, дом 16";"37,524269";"55,806726";"Северный административный округ";"район Аэропорт";"(495) 945-37-31";"cbs5sao@bk.ru";"cbs5.uksao.ru";"87036051";
147;"Государственное бюджетное учреждение культуры города Москвы «Центральная библиотечная система «Библиорадуга» Северного административного округа», Библиотека № 35";"Пулковская улица, дом 3, корпус 1";"37,481421";"55,84421";"Северный административный округ";"Головинский район";"(495) 456-35-80";"cbs2sao@yandex.ru";"cbs2sao.ru";"87036052";
148;"Государственное бюджетное учреждение культуры города Москвы «Центральная библиотечная система «Библиорадуга» Северного административного округа», Центральная библиотека № 65 имени В.Г. Короленко";"Фестивальная улица, дом 46, корпус 1";"37,512993";"55,862698";"Северный административный округ";"Головинский район";"(495) 456-35-80";"cbs2sao@yandex.ru";"cbs2sao.ru";"87036053";
149;"Государственное бюджетное учреждение культуры города Москвы «Центральная библиотечная система «Библиорадуга» Северного административного округа», Библиотека-филиал № 79";"Коптевская улица, дом 26, корпус 6";"37,52307";"55,835346";"Северный административный округ";"район Коптево";"(495) 456-35-80";"cbs2sao@yandex.ru";"cbs2sao.ru";"87036054";
150;"Государственное бюджетное учреждение культуры города Москвы «Центральная библиотечная система «Библиорадуга» Северного административного округа», Библиотека-филиал № 148";"улица Лавочкина, дом 16, корпус 2";"37,501815";"55,851686";"Северный административный округ";"Головинский район";"(495) 456-35-80";"cbs2sao@yandex.ru";"cbs2sao.ru";"87036055";
151;"Государственное бюджетное учреждение культуры города Москвы «Центральная библиотечная система «Библиорадуга» Северного административного округа», Библиотека-филиал № 197";"Онежская улица, дом 17, корпус 4";"37,51719";"55,851329";"Северный административный округ";"Головинский район";"(495) 456-35-80";"cbs2sao@yandex.ru";"cbs2sao.ru";"87036056";
152;"Государственное бюджетное учреждение культуры города Москвы «Центральная библиотечная система «Библиорадуга» Северного административного округа», Библиотека-филиал № 211";"Смольная улица, дом 11";"37,498392";"55,846104";"Северный административный округ";"Головинский район";"(495) 456-35-80";"cbs2sao@yandex.ru";"cbs2sao.ru";"87036057";
153;"Государственное бюджетное учреждение культуры города Москвы «Центральная библиотечная система «Библиорадуга» Северного административного округа», Библиотека-филиал № 257";"улица Бусиновская горка, дом 5";"37,49411";"55,882416";"Северный административный округ";"район Западное Дегунино";"(495) 456-35-80";"cbs2sao@yandex.ru";"cbs2sao.ru";"87036058";
154;"Государственное бюджетное учреждение культуры города Москвы «Библиотечный комплес «Бабушкино», Библиотека № 93";"Ярославское шоссе, дом 117";"37,712672";"55,872864";"Северо-Восточный административный округ";"Ярославский район";"(499) 185-35-07";"info@bkbabushkino.ru";"bkbabushkino.ru";"87036115";
155;"Государственное бюджетное учреждение культуры города Москвы «Библиотечный комплес «Бабушкино», Библиотека № 95";"Сельскохозяйственная улица, дом 13, корпус 2";"37,640222";"55,835805";"Северо-Восточный административный округ";"район Ростокино";"(499) 185-35-07";"info@bkbabushkino.ru";"bkbabushkino.ru";"87036116";
156;"Государственное бюджетное учреждение культуры города Москвы «Центральная библиотечная система «Лианозово», Детская библиотека № 51";"Алтуфьевское шоссе, дом 97";"37,585532";"55,902846";"Северо-Восточный административный округ";"район Лианозово";"(499) 209-51-88";"2095801@list.ru";"liobook.ru";"87036117";
157;"Государственное бюджетное учреждение культуры города Москвы «Центральная библиотечная система «Лианозово», Библиотека № 209";"Алтуфьевское шоссе, дом 91";"37,585641";"55,896481";"Северо-Восточный административный округ";"район Лианозово";"(499) 209-51-88";"2095801@list.ru";"liobook.ru";"87036118";
158;"Государственное бюджетное учреждение культуры города Москвы «Центральная библиотечная система № 1 Восточного административного округа», Детская библиотека № 55";"Ивантеевская улица, дом 4, корпус 2";"37,715997";"55,819627";"Восточный административный округ";"район Богородское";"(499) 162-97-57";"biblmol@mail.ru";"cbs1vao.ru";"87036119";
159;"Государственное бюджетное учреждение культуры города Москвы «Центральная библиотечная система № 1 Восточного административного округа», Библиотека № 57";"Хабаровская улица, дом 3";"37,827429";"55,815152";"Восточный административный округ";"район Гольяново";"(499) 162-97-57";"biblmol@mail.ru";"cbs1vao.ru";"87036120";
160;"Государственное бюджетное учреждение культуры города Москвы «Центральная библиотечная система № 1 Восточного административного округа», Детская библиотека № 57";"Краснобогатырская улица, дом 75, корпус 2";"37,707309";"55,808829";"Восточный административный округ";"район Богородское";"(499) 162-97-57";"biblmol@mail.ru";"cbs1vao.ru";"87036121";
161;"Государственное бюджетное учреждение культуры города Москвы «Центральная библиотечная система № 1 Восточного административного округа», Библиотека № 59 семейного чтения";"Большая Черкизовская улица, дом 18/1";"37,730392";"55,797946";"Восточный административный округ";"район Преображенское";"(499) 162-97-57";"biblmol@mail.ru";"cbs1vao.ru";"87036122";
162;"Государственное бюджетное учреждение культуры города Москвы «Центральная библиотечная система № 1 Восточного административного округа», Библиотека № 76";"Хабаровская улица, дом 12/23";"37,826677";"55,821478";"Восточный административный округ";"район Гольяново";"(499) 162-97-57";"biblmol@mail.ru";"cbs1vao.ru";"87036123";
163;"Государственное бюджетное учреждение культуры города Москвы «Центральная библиотечная система № 1 Восточного административного округа», Библиотека № 103 имени А.С. Серафимовича";"Открытое шоссе, дом 27, корпус 8";"37,756889";"55,827736";"Восточный административный округ";"район Метрогородок";"(499) 162-97-57";"biblmol@mail.ru";"cbs1vao.ru";"87036124";
164;"Государственное бюджетное учреждение культуры города Москвы «Центральная библиотечная система № 1 Восточного административного округа», Детская библиотека № 103";"Открытое шоссе, дом 24, корпус 13";"37,759267";"55,824035";"Восточный административный округ";"район Метрогородок";"(499) 162-97-57";"biblmol@mail.ru";"cbs1vao.ru";"87036125";
165;"Государственное бюджетное учреждение культуры города Москвы «Центральная библиотечная система № 1 Восточного административного округа», Библиотека № 105";"Амурская улица, дом 31";"37,796236";"55,814225";"Восточный административный округ";"район Гольяново";"(499) 162-97-57";"biblmol@mail.ru";"cbs1vao.ru";"87036126";
166;"Государственное бюджетное учреждение культуры города Москвы «Центральная библиотечная система № 3 Восточного административного округа», Детская библиотека № 104";"улица Плеханова, дом 26, корпус 4";"37,768028";"55,740299";"Восточный административный округ";"район Перово";"(495) 374-94-50";"biblioteka126@mail.ru";"";"87036161";
167;"Государственное бюджетное учреждение культуры города Москвы «Центральная библиотечная система № 3 Восточного административного округа», Детская библиотека № 108";"Зелёный проспект, дом 87, корпус 1";"37,823731";"55,751353";"Восточный административный округ";"район Новогиреево";"(495) 374-94-50";"biblioteka126@mail.ru";"";"87036162";
168;"Государственное бюджетное учреждение культуры города Москвы «Центральная библиотечная система № 3 Восточного административного округа», Библиотека № 123";"1-я Владимирская улица, дом 15, корпус 3";"37,776668";"55,758267";"Восточный административный округ";"район Перово";"(495) 374-94-50";"biblioteka126@mail.ru";"";"87036163";
169;"Государственное бюджетное учреждение культуры города Москвы «Центральная библиотечная система № 3 Восточного административного округа», Центральная библиотека № 126";"улица Молдагуловой, дом 3Б";"37,821666";"55,723519";"Восточный административный округ";"район Вешняки";"(495) 374-94-50";"biblioteka126@mail.ru";"";"87036164";
170;"Государственное бюджетное учреждение культуры города Москвы «Центральная библиотечная система № 3 Восточного административного округа», Библиотека № 127 семейного чтения";"улица Аносова, дом 3, корпус 2";"37,755144";"55,743267";"Восточный административный округ";"район Перово";"(495) 374-94-50";"biblioteka126@mail.ru";"";"87036165";
171;"Государственное бюджетное учреждение культуры города Москвы «Центральная библиотечная система № 3 Восточного административного округа», Библиотека № 128 семейного чтения";"Полимерная улица, дом 7, строение 2";"37,800052";"55,747082";"Восточный административный округ";"район Новогиреево";"(495) 374-94-50";"biblioteka126@mail.ru";"";"87036166";
172;"Государственное бюджетное учреждение культуры города Москвы «Центральная библиотечная система № 3 Восточного административного округа», Библиотека № 129";"Свободный проспект, дом 24";"37,815484";"55,749861";"Восточный административный округ";"район Новогиреево";"(495) 374-94-50";"biblioteka126@mail.ru";"";"87036167";
173;"Государственное бюджетное учреждение культуры города Москвы «Центральная библиотечная система № 3 Восточного административного округа», Библиотека № 130";"Новокосинская улица, дом 38, корпус 2";"37,870148";"55,741891";"Восточный административный округ";"район Новокосино";"(495) 374-94-50";"biblioteka126@mail.ru";"";"87036168";
174;"Государственное бюджетное учреждение культуры города Москвы «Центральная библиотечная система № 3 Восточного административного округа», Библиотека № 162 имени И. Бабеля";"Зелёный проспект, дом 87, корпус 1";"37,823731";"55,751353";"Восточный административный округ";"район Новогиреево";"(495) 374-94-50";"biblioteka126@mail.ru";"";"87036169";
175;"Государственное бюджетное учреждение культуры города Москвы «Центральная библиотечная система № 4 Восточного административного округа», Библиотека № 53 имени И.А. Крылова";"улица Сокольническая слободка, дом 14/18";"37,675911";"55,788929";"Восточный административный округ";"район Сокольники";"(499) 748-07-30";"cbs4vao@mail.ru";"mos-lermont.ru";"87036170";
176;"Государственное бюджетное учреждение культуры города Москвы «Центральная библиотечная система № 4 Восточного административного округа», Детская библиотека № 54";"улица Короленко, дом 2/23, корпус 4";"37,687631";"55,797415";"Восточный административный округ";"район Сокольники";"(499) 748-07-30";"cbs4vao@mail.ru";"mos-lermont.ru";"87036171";
177;"Государственное бюджетное учреждение культуры города Москвы «Центральная библиотечная система № 4 Восточного административного округа», Центральная библиотека № 102 имени М.Ю. Лермонтова";"улица Барболина, дом 6";"37,687596";"55,786355";"Восточный административный округ";"район Сокольники";"(499) 748-07-30";"cbs4vao@mail.ru";"mos-lermont.ru";"87036172";
178;"Государственное бюджетное учреждение культуры города Москвы «Центральная библиотечная система № 4 Восточного административного округа», Библиотека № 108";"улица Шумкина, дом 17/16";"37,671012";"55,788112";"Восточный административный округ";"район Сокольники";"(499) 748-07-30";"cbs4vao@mail.ru";"mos-lermont.ru";"87036173";
179;"Государственное бюджетное учреждение культуры города Москвы «Юношеская библиотека № 214 Восточного административного округа»";"Саянская улица, дом 7А";"37,832055";"55,76814";"Восточный административный округ";"район Ивановское";"(495) 307-86-05; (495) 918-84-81";"biblioteka214vao@mail.ru";"biblioteka214.ru";"87036174";
180;"Государственное бюджетное учреждение культуры города Москвы «Центральная библиотечная система «Волгоградская», Центральная детская библиотека № 1";"1-я Новокузьминская улица, дом 16, корпус 2";"37,790041";"55,713602";"Юго-Восточный административный округ";"Рязанский район";"(499) 170-84-10";"cb194@yandex.ru";"biblios.ru";"87036175";
181;"Государственное бюджетное учреждение культуры города Москвы «Центральная библиотечная система «Волгоградская», Библиотека № 11";"Волгоградский проспект, дом 191";"37,818751";"55,693163";"Юго-Восточный административный округ";"район Выхино-Жулебино";"(499) 170-84-10";"cb194@yandex.ru";"biblios.ru";"87036176";
182;"Государственное бюджетное учреждение культуры города Москвы «Центральная библиотечная система «Волгоградская», Библиотека № 12 семейного чтения";"улица Головачёва, дом 3, корпус 2";"37,805503";"55,675216";"Юго-Восточный административный округ";"район Люблино";"(499) 170-84-10";"cb194@yandex.ru";"biblios.ru";"87036177";
183;"Государственное бюджетное учреждение культуры города Москвы «Центральная библиотечная система «Волгоградская», Библиотека № 14 семейного чтения";"Орехово-Зуевский проезд, дом 22";"37,756961";"55,731831";"Юго-Восточный административный округ";"Нижегородский район";"(499) 170-84-10";"cb194@yandex.ru";"biblios.ru";"87036178";
184;"Государственное бюджетное учреждение культуры города Москвы «Центральная библиотечная система «Волгоградская», Библиотека № 15 семейного чтения";"Привольная улица, дом 21";"37,843888";"55,697546";"Юго-Восточный административный округ";"район Выхино-Жулебино";"(499) 170-84-10";"cb194@yandex.ru";"biblios.ru";"87036179";
185;"Государственное бюджетное учреждение культуры города Москвы «Центральная библиотечная система «Волгоградская», Детская библиотека № 16";"Ферганский проезд, дом 3, корпус 3";"37,826091";"55,696032";"Юго-Восточный административный округ";"район Выхино-Жулебино";"(499) 170-84-10";"cb194@yandex.ru";"biblios.ru";"87036180";
186;"Государственное бюджетное учреждение культуры города Москвы «Центральная библиотечная система «Волгоградская», Детская библиотека № 77";"Шатурская улица, дом 49, корпус 1";"37,774454";"55,726808";"Юго-Восточный административный округ";"Рязанский район";"(499) 170-84-10";"cb194@yandex.ru";"biblios.ru";"87036181";
187;"Государственное бюджетное учреждение культуры города Москвы «Центральная библиотечная система «Волгоградская», Детская библиотека № 79";"3-я Институтская улица, дом 15";"37,783977";"55,72288";"Юго-Восточный административный округ";"Рязанский район";"(499) 170-84-10";"cb194@yandex.ru";"biblios.ru";"87036182";
188;"Государственное бюджетное учреждение культуры города Москвы «Центральная библиотечная система «Волгоградская», Библиотека № 84";"Волгоградский проспект, дом 91";"37,749424";"55,708196";"Юго-Восточный административный округ";"район Кузьминки";"(499) 170-84-10";"cb194@yandex.ru";"biblios.ru";"87036183";
189;"Государственное бюджетное учреждение культуры города Москвы «Центральная библиотечная система № 1 Восточного административного округа», Библиотека № 107";"Краснобогатырская улица, дом 77";"37,7072";"55,805953";"Восточный административный округ";"район Богородское";"(499) 162-97-57";"biblmol@mail.ru";"cbs1vao.ru";"87036127";
190;"Государственное бюджетное учреждение культуры города Москвы «Центральная библиотечная система № 1 Восточного административного округа», Центральная библиотека № 109 имени М.А. Шолохова";"Халтуринская улица, дом 18";"37,726084";"55,804994";"Восточный административный округ";"район Преображенское";"(499) 162-97-57";"biblmol@mail.ru";"cbs1vao.ru";"87036128";
191;"Государственное бюджетное учреждение культуры города Москвы «Центральная библиотечная система № 1 Восточного административного округа», Библиотека № 111 экономической и юридической литературы";"Большая Черкизовская улица, дом 18/1";"37,730392";"55,797946";"Восточный административный округ";"район Преображенское";"(499) 162-97-57";"biblmol@mail.ru";"cbs1vao.ru";"87036129";
192;"Государственное бюджетное учреждение культуры города Москвы «Центральная библиотечная система № 1 Восточного административного округа», Юношеская библиотека № 115";"Хабаровская улица, дом 6, корпус 1";"37,828216";"55,817436";"Восточный административный округ";"район Гольяново";"(499) 162-97-57";"biblmol@mail.ru";"cbs1vao.ru";"87036130";
193;"Государственное бюджетное учреждение культуры города Москвы «Центральная библиотечная система № 1 Восточного административного округа», Центральная детская библиотека № 115";"Байкальская улица, дом 46, корпус 1";"37,819221";"55,817008";"Восточный административный округ";"район Гольяново";"(499) 162-97-57";"biblmol@mail.ru";"cbs1vao.ru";"87036131";
194;"Государственное бюджетное учреждение культуры города Москвы «Центральная библиотечная система № 1 Восточного административного округа», Детская библиотека № 161";"Уссурийская улица, дом 9";"37,819017";"55,823879";"Восточный административный округ";"район Гольяново";"(499) 162-97-57";"biblmol@mail.ru";"cbs1vao.ru";"87036132";
195;"Государственное бюджетное учреждение культуры города Москвы «Центральная библиотечная система № 2 Восточного административного округа», Центральная библиотека № 120 имени Б. Лавренева";"13-я Парковая улица, дом 4";"37,812927";"55,794276";"Восточный административный округ";"район Восточное Измайлово";"(495) 465-59-98";"cbs_ism@mail.ru";"ismailovo.biblioland.ru";"87036133";
196;"Государственное бюджетное учреждение культуры города Москвы «Центральная библиотечная система № 2 Восточного административного округа», Детская библиотека № 62";"Сиреневый бульвар, 64/31";"37,829466";"55,802605";"Восточный административный округ";"район Восточное Измайлово";"(495) 465-59-98";"cbs_ism@mail.ru";"ismailovo.biblioland.ru";"87036134";
197;"Государственное бюджетное учреждение культуры города Москвы «Центральная библиотечная система № 2 Восточного административного округа», Детская библиотека № 63";"3-я Парковая улица, дом 26/2";"37,783391";"55,795921";"Восточный административный округ";"район Измайлово";"(495) 465-59-98";"cbs_ism@mail.ru";"ismailovo.biblioland.ru";"87036135";
198;"Государственное бюджетное учреждение культуры города Москвы «Центральная библиотечная система № 2 Восточного административного округа», Детская библиотека № 64";"4-я Парковая улица, дом 12, корпус 1";"37,786269";"55,791004";"Восточный административный округ";"район Измайлово";"(495) 465-59-98";"cbs_ism@mail.ru";"ismailovo.biblioland.ru";"87036136";
199;"Государственное бюджетное учреждение культуры города Москвы «Центральная библиотечная система № 2 Восточного административного округа», Центральная детская библиотека № 65 имени В. Загорского";"Ткацкая улица, дом 28/14";"37,733934";"55,78632";"Восточный административный округ";"район Соколиная Гора";"(495) 465-59-98";"cbs_ism@mail.ru";"ismailovo.biblioland.ru";"87036137";
200;"Государственное бюджетное учреждение культуры города Москвы «Центральная библиотечная система № 2 Восточного административного округа», Детская библиотека № 66";"7-я Парковая улица, дом 27";"37,792399";"55,802364";"Восточный административный округ";"район Измайлово";"(495) 465-59-98";"cbs_ism@mail.ru";"ismailovo.biblioland.ru";"87036138";
201;"Государственное бюджетное учреждение культуры города Москвы «Центральная библиотечная система № 2 Восточного административного округа», Библиотека № 67 юношеская";"11-я Парковая улица, дом 19";"37,805181";"55,793961";"Восточный административный округ";"район Измайлово";"(495) 465-59-98";"cbs_ism@mail.ru";"ismailovo.biblioland.ru";"87036139";
202;"Государственное бюджетное учреждение культуры города Москвы «Центральная библиотечная система № 2 Восточного административного округа», Детская библиотека № 97";"Измайловский проспект, дом 113";"37,811649";"55,789143";"Восточный административный округ";"район Восточное Измайлово";"(495) 465-59-98";"cbs_ism@mail.ru";"ismailovo.biblioland.ru";"87036140";
203;"Государственное бюджетное учреждение культуры города Москвы «Центральная библиотечная система № 2 Восточного административного округа», Библиотека № 101";"Измайловский проспект, дом 83";"37,801693";"55,78896";"Восточный административный округ";"район Восточное Измайлово";"(495) 465-59-98";"cbs_ism@mail.ru";"ismailovo.biblioland.ru";"87036141";
204;"Государственное бюджетное учреждение культуры города Москвы «Центральная библиотечная система № 2 Восточного административного округа», Библиотека № 114";"Сиреневый бульвар, дом 73, корпус 1";"37,82791";"55,803673";"Восточный административный округ";"район Северное Измайлово";"(495) 465-59-98";"cbs_ism@mail.ru";"ismailovo.biblioland.ru";"87036142";
205;"Государственное бюджетное учреждение культуры города Москвы «Центральная библиотечная система № 2 Восточного административного округа», Библиотека № 116";"улица Константина Федина, дом 2, корпус 1";"37,7914";"55,806113";"Восточный административный округ";"район Северное Измайлово";"(495) 465-59-98";"cbs_ism@mail.ru";"ismailovo.biblioland.ru";"87036143";
206;"Государственное бюджетное учреждение культуры города Москвы «Центральная библиотечная система № 2 Восточного административного округа», Библиотека семейного чтения № 117 имени В. Загорского";"Челябинская улица, дом 24, корпус 3А";"37,837344";"55,779263";"Восточный административный округ";"район Ивановское";"(495) 465-59-98";"cbs_ism@mail.ru";"ismailovo.biblioland.ru";"87036144";
207;"Государственное бюджетное учреждение культуры города Москвы «Центральная библиотечная система № 2 Восточного административного округа», Библиотека № 118";"Щербаковская улица, дом 54";"37,738927";"55,781802";"Восточный административный округ";"район Соколиная Гора";"(495) 465-59-98";"cbs_ism@mail.ru";"ismailovo.biblioland.ru";"87036145";
208;"Государственное бюджетное учреждение культуры города Москвы «Центральная библиотечная система № 2 Восточного административного округа», Библиотека № 119";"3-я Парковая улица, дом 35";"37,781641";"55,796659";"Восточный административный округ";"район Измайлово";"(495) 465-59-98";"cbs_ism@mail.ru";"ismailovo.biblioland.ru";"87036146";
209;"Государственное бюджетное учреждение культуры города Москвы «Центральная библиотечная система № 2 Восточного административного округа», Библиотека № 121";"Измайловский проезд, дом 4";"37,770202";"55,790936";"Восточный административный округ";"район Измайлово";"(495) 465-59-98";"cbs_ism@mail.ru";"ismailovo.biblioland.ru";"87036147";
210;"Государственное бюджетное учреждение культуры города Москвы «Центральная библиотечная система № 2 Восточного административного округа», Библиотека семейного чтения № 180";"Измайловский проезд, дом 18, корпус 2";"37,769774";"55,798201";"Восточный административный округ";"район Измайлово";"(495) 465-59-98";"cbs_ism@mail.ru";"ismailovo.biblioland.ru";"87036148";
211;"Государственное бюджетное учреждение культуры города Москвы «Центральная библиотечная система № 2 Восточного административного округа», Библиотека семейного чтения № 192";"9-я улица Соколиной Горы, дом 17";"37,736049";"55,773118";"Восточный административный округ";"район Соколиная Гора";"(495) 465-59-98";"cbs_ism@mail.ru";"ismailovo.biblioland.ru";"87036149";
212;"Государственное бюджетное учреждение культуры города Москвы «Центральная библиотечная система № 2 Восточного административного округа», Библиотека семейного чтения № 208";"посёлок Акулово, дом 20, строение 1";"37,795489";"56,007963";"Восточный административный округ";"район Восточный";"(495) 465-59-98";"cbs_ism@mail.ru";"ismailovo.biblioland.ru";"87036150";
213;"Государственное бюджетное учреждение культуры города Москвы «Центральная библиотечная система № 2 Восточного административного округа», Библиотека семейного чтения № 229";"посёлок Восточный, улица 9 Мая, дом 14, строение 1";"37,867271";"55,817159";"Восточный административный округ";"район Восточный";"(495) 465-59-98";"cbs_ism@mail.ru";"ismailovo.biblioland.ru";"87036151";
214;"Государственное бюджетное учреждение культуры города Москвы «Центральная библиотечная система № 2 Восточного административного округа», Библиотека № 267";"5-я улица Соколиной горы, дом 19, корпус 2";"37,737218";"55,764167";"Восточный административный округ";"район Соколиная Гора";"(495) 465-59-98";"cbs_ism@mail.ru";"ismailovo.biblioland.ru";"87036152";
215;"Государственное бюджетное учреждение культуры города Москвы «Центральная библиотечная система № 3 Восточного административного округа», Детская библиотека № 7";"Суздальская, дом 38, корпус 2";"37,872689";"55,745477";"Восточный административный округ";"район Новокосино";"(495) 374-94-50";"biblioteka126@mail.ru";"";"87036153";
216;"Государственное бюджетное учреждение культуры города Москвы «Центральная библиотечная система № 3 Восточного административного округа», Библиотека № 10 имени Блока";"улица Сталеваров, дом 14, корпус 3";"37,839091";"55,757385";"Восточный административный округ";"район Ивановское";"(495) 374-94-50";"biblioteka126@mail.ru";"";"87036154";
217;"Государственное бюджетное учреждение культуры города Москвы «Центральная библиотечная система № 3 Восточного административного округа», Детская библиотека № 33";"Новокосинская улица, дом 15, корпус 3";"37,85386";"55,737907";"Восточный административный округ";"район Новокосино";"(495) 374-94-50";"biblioteka126@mail.ru";"";"87036155";
218;"Государственное бюджетное учреждение культуры города Москвы «Центральная библиотечная система № 3 Восточного административного округа», Детская библиотека № 70 имени А. Неверова";"Вешняковская улица, дом 24Б";"37,81755";"55,720342";"Восточный административный округ";"район Вешняки";"(495) 374-94-50";"biblioteka126@mail.ru";"";"87036156";
219;"Государственное бюджетное учреждение культуры города Москвы «Центральная библиотечная система № 3 Восточного административного округа», Детская библиотека № 74";"Саянская улица, дом 7А";"37,832055";"55,76814";"Восточный административный округ";"район Ивановское";"(495) 374-94-50";"biblioteka126@mail.ru";"";"87036157";
220;"Государственное бюджетное учреждение культуры города Москвы «Центральная библиотечная система № 3 Восточного административного округа», Детская библиотека № 75";"улица Металлургов, дом 5";"37,778938";"55,757179";"Восточный административный округ";"район Перово";"(495) 374-94-50";"biblioteka126@mail.ru";"";"87036158";
221;"Государственное бюджетное учреждение культуры города Москвы «Центральная библиотечная система № 3 Восточного административного округа», Центральная детская библиотека № 76 имени Э. Войнич";"шоссе Энтузиастов, дом 78, корпус 1";"37,787667";"55,764683";"Восточный административный округ";"район Перово";"(495) 374-94-50";"biblioteka126@mail.ru";"";"87036159";
222;"Государственное бюджетное учреждение культуры города Москвы «Центральная библиотечная система № 2 Северо-Восточного административного округа», Библиотека № 96";"Анадырский проезд, дом 39, корпус 2";"37,691288";"55,870192";"Северо-Восточный административный округ";"Лосиноостровский район";"(495) 470-42-47";"lib110@yandex.ru";"biblioterra.ru";"87036104";
223;"Государственное бюджетное учреждение культуры города Москвы «Центральная библиотечная система № 2 Северо-Восточного административного округа», Центральная библиотека № 110";"Верхоянская улица, дом 6, корпус 1";"37,669181";"55,858421";"Северо-Восточный административный округ";"Бабушкинский район";"(495) 470-42-47";"lib110@yandex.ru";"biblioterra.ru";"87036105";
224;"Государственное бюджетное учреждение культуры города Москвы «Центральная библиотечная система № 2 Северо-Восточного административного округа», Библиотека № 165";"улица Кибальчича, дом 4/6";"37,647393";"55,815193";"Северо-Восточный административный округ";"Алексеевский район";"(495) 470-42-47";"lib110@yandex.ru";"biblioterra.ru";"87036106";
225;"Государственное бюджетное учреждение культуры города Москвы «Центральная библиотечная система № 2 Северо-Восточного административного округа», Библиотека № 218";"улица Менжинского, дом 26, корпус 2";"37,671134";"55,869462";"Северо-Восточный административный округ";"Бабушкинский район";"(495) 470-42-47";"lib110@yandex.ru";"biblioterra.ru";"87036107";
226;"Государственное бюджетное учреждение культуры города Москвы «Центральная библиотечная система № 3 Северо-Восточного административного округа», Детская библиотека № 47";"Аргуновская улица, дом 14, строение 2";"37,620847";"55,818291";"Северо-Восточный административный округ";"Останкинский район";"(495) 687-74-44";"lib94@mail.ru";"cbs3svao.bibliogorod.ru";"87036108";
227;"Государственное бюджетное учреждение культуры города Москвы «Центральная библиотечная система № 3 Северо-Восточного административного округа», Центральная библиотека № 94 имени Горького";"Новоалексеевская улица, дом 1";"37,638941";"55,80684";"Северо-Восточный административный округ";"Алексеевский район";"(495) 687-74-44";"lib94@mail.ru";"cbs3svao.bibliogorod.ru";"87036109";
228;"Государственное бюджетное учреждение культуры города Москвы «Центральная библиотечная система № 3 Северо-Восточного административного округа», Библиотека № 97 имени О. Мандельштама";"Звездный бульвар, дом 4";"37,635464";"55,817866";"Северо-Восточный административный округ";"Останкинский район";"(495) 687-74-44";"lib94@mail.ru";"cbs3svao.bibliogorod.ru";"87036110";
229;"Государственное бюджетное учреждение культуры города Москвы «Центральная библиотечная система № 3 Северо-Восточного административного округа», Библиотека № 187 имени П. Неруды";"проспект Мира, дом 180";"37,6462";"55,823708";"Северо-Восточный административный округ";"Алексеевский район";"(495) 687-74-44";"lib94@mail.ru";"cbs3svao.bibliogorod.ru";"87036111";
230;"Государственное бюджетное учреждение культуры города Москвы «Библиотечный комплес «Бабушкино», Библиотека № 90";"Будайский проезд, дом 7, корпус 2";"37,666549";"55,836336";"Северо-Восточный административный округ";"район Ростокино";"(499) 185-35-07";"info@bkbabushkino.ru";"bkbabushkino.ru";"87036112";
231;"Государственное бюджетное учреждение культуры города Москвы «Библиотечный комплес «Бабушкино», Библиотека № 92";"Тайнинская улица, дом 16 корпус 2";"37,68641";"55,880627";"Северо-Восточный административный округ";"Лосиноостровский район";"(499) 185-35-07";"info@bkbabushkino.ru";"bkbabushkino.ru";"87036113";
232;"Государственное бюджетное учреждение культуры города Москвы «Библиотечный комплес «Бабушкино», Библиотека № 92";"Тенистый проезд, дом 2, корпус 1";"37,63518";"55,858597";"Северо-Восточный административный округ";"район Свиблово";"(499) 185-35-07";"info@bkbabushkino.ru";"bkbabushkino.ru";"87036114";
233;"Государственное бюджетное учреждение культуры города Москвы «Центральная библиотечная система № 1 Южного административного округа», Центральная детская библиотека № 101";"Воронежская улица, дом 10";"37,726844";"55,609036";"Южный административный округ";"район Орехово-Борисово Южное";"(499) 612-72-98";"ekarimova.inbox@ru";"tolstovkainfograd.ru";"87036232";
234;"Государственное бюджетное учреждение культуры города Москвы «Центральная библиотечная система № 1 Южного административного округа», Библиотека № 102";"Касимовская улица, дом 21";"37,657255";"55,595466";"Южный административный округ";"район Бирюлёво Восточное";"(499) 612-72-98";"ekarimova.inbox@ru";"tolstovkainfograd.ru";"87036233";
235;"Государственное бюджетное учреждение культуры города Москвы «Центральная библиотечная система № 1 Южного административного округа», Библиотека № 109";"Задонский проезд, дом 24, корпус 3";"37,753642";"55,621638";"Южный административный округ";"район Зябликово";"(499) 612-72-98";"ekarimova.inbox@ru";"tolstovkainfograd.ru";"87036234";
236;"Государственное бюджетное учреждение культуры города Москвы «Центральная библиотечная система № 1 Южного административного округа», Детская библиотека № 119";"улица Медиков, дом 22, корпус 3";"37,677901";"55,631733";"Южный административный округ";"район Царицыно";"(499) 612-72-98";"ekarimova.inbox@ru";"tolstovkainfograd.ru";"87036235";
237;"Государственное бюджетное учреждение культуры города Москвы «Центральная библиотечная система № 1 Южного административного округа», Детская библиотека № 130";"Гурьевский проезд, дом 15, корпус 2";"37,74711";"55,605873";"Южный административный округ";"район Орехово-Борисово Южное";"(499) 612-72-98";"ekarimova.inbox@ru";"tolstovkainfograd.ru";"87036236";
238;"Государственное бюджетное учреждение культуры города Москвы «Центральная библиотечная система № 1 Южного административного округа», Детская библиотека № 137";"Домодедовская улица, дом 1, корпус 1";"37,706456";"55,616266";"Южный административный округ";"район Орехово-Борисово Северное";"(499) 612-72-98";"ekarimova.inbox@ru";"tolstovkainfograd.ru";"87036237";
239;"Государственное бюджетное учреждение культуры города Москвы «Центральная библиотечная система № 1 Южного административного округа», Детская библиотека № 143";"улица Мусы Джалиля, дом 34, корпус 3";"37,737711";"55,617768";"Южный административный округ";"район Зябликово";"(499) 612-72-98";"ekarimova.inbox@ru";"tolstovkainfograd.ru";"87036238";
240;"Государственное бюджетное учреждение культуры города Москвы «Центральная библиотечная система № 1 Южного административного округа», Библиотека № 146";"Каширское шоссе, дом 16";"37,630534";"55,662206";"Южный административный округ";"район Нагатино-Садовники";"(499) 612-72-98";"ekarimova.inbox@ru";"tolstovkainfograd.ru";"87036239";
241;"Государственное бюджетное учреждение культуры города Москвы «Центральная библиотечная система № 1 Южного административного округа», Библиотека № 151";"Липецкая улица, дом 54/21, строение 2";"37,683244";"55,578482";"Южный административный округ";"район Бирюлёво Восточное";"(499) 612-72-98";"ekarimova.inbox@ru";"tolstovkainfograd.ru";"87036240";
242;"Государственное бюджетное учреждение культуры города Москвы «Центральная библиотечная система № 1 Южного административного округа», Библиотека № 154";"Каспийская улица, дом 20, корпус 2";"37,675203";"55,626009";"Южный административный округ";"район Царицыно";"(499) 612-72-98";"ekarimova.inbox@ru";"tolstovkainfograd.ru";"87036241";
243;"Государственное бюджетное учреждение культуры города Москвы «Центральная библиотечная система № 1 Южного административного округа», Библиотека № 155";"Липецкая улица, дом 10, корпус 1";"37,669916";"55,598478";"Южный административный округ";"район Бирюлёво Восточное";"(499) 612-72-98";"ekarimova.inbox@ru";"tolstovkainfograd.ru";"87036242";
244;"Государственное бюджетное учреждение культуры города Москвы «Центральная библиотечная система № 1 Южного административного округа», Библиотека № 158";"Лебедянская улица, дом 24, корпус 2";"37,685997";"55,583972";"Южный административный округ";"район Бирюлёво Восточное";"(499) 612-72-98";"ekarimova.inbox@ru";"tolstovkainfograd.ru";"87036243";
245;"Государственное бюджетное учреждение культуры города Москвы «Центральная библиотечная система № 1 Южного административного округа», Библиотека № 159";"Домодедовская улица, дом 11, корпус 1";"37,70938";"55,611128";"Южный административный округ";"район Орехово-Борисово Северное";"(499) 612-72-98";"ekarimova.inbox@ru";"tolstovkainfograd.ru";"87036244";
246;"Государственное бюджетное учреждение культуры города Москвы «Центральная библиотечная система № 1 Южного административного округа», Библиотека № 160";"Михневский проезд, дом 8, корпус 2";"37,668159";"55,575475";"Южный административный округ";"район Бирюлёво Восточное";"(499) 612-72-98";"ekarimova.inbox@ru";"tolstovkainfograd.ru";"87036245";
247;"Государственное бюджетное учреждение культуры города Москвы «Центральная библиотечная система № 1 Южного административного округа», Библиотека № 164";"Ореховый бульвар, дом 37, корпус 2";"37,738016";"55,615819";"Южный административный округ";"район Зябликово";"(499) 612-72-98";"ekarimova.inbox@ru";"tolstovkainfograd.ru";"87036246";
248;"Государственное бюджетное учреждение культуры города Москвы «Центральная библиотечная система № 1 Южного административного округа», Библиотека № 205";"Бакинская улица, дом 15";"37,659088";"55,620928";"Южный административный округ";"район Царицыно";"(499) 612-72-98";"ekarimova.inbox@ru";"tolstovkainfograd.ru";"87036247";
249;"Государственное бюджетное учреждение культуры города Москвы «Центральная библиотечная система № 1 Южного административного округа», Библиотека № 212";"улица Генерала Белова, дом 29, корпус 3";"37,722728";"55,614916";"Южный административный округ";"район Орехово-Борисово Северное";"(499) 612-72-98";"ekarimova.inbox@ru";"tolstovkainfograd.ru";"87036248";
250;"Государственное бюджетное учреждение культуры города Москвы «Центральная библиотечная система № 1 Южного административного округа», Библиотека № 220";"Ясеневая улица, дом 34, корпус 4";"37,744197";"55,603958";"Южный административный округ";"район Орехово-Борисово Южное";"(499) 612-72-98";"ekarimova.inbox@ru";"tolstovkainfograd.ru";"87036249";
251;"Государственное бюджетное учреждение культуры города Москвы «Центральная библиотечная система № 1 Южного административного округа», Библиотека № 234";"Каширское шоссе, дом 53, корпус 6";"37,69428";"55,639858";"Южный административный округ";"район Москворечье-Сабурово";"(499) 612-72-98";"ekarimova.inbox@ru";"tolstovkainfograd.ru";"87036250";
252;"Государственное бюджетное учреждение культуры города Москвы «Центральная библиотечная система № 1 Южного административного округа», Библиотека № 258";"улица Борисовские пруды, дом 10, корпус 5";"37,741208";"55,633426";"Южный административный округ";"район Братеево";"(499) 612-72-98";"ekarimova.inbox@ru";"tolstovkainfograd.ru";"87036251";
253;"Государственное бюджетное учреждение культуры города Москвы «Центральная библиотечная система № 2 Южного административного округа», Библиотека № 1";"микрорайон Северное Чертаново, дом 2, корпус 207";"37,600988";"55,639311";"Южный административный округ";"район Чертаново Северное";"(499) 610-29-00";"cbs2uao@yandex.ru";"cbs2uao.ru";"87036252";
254;"Государственное бюджетное учреждение культуры города Москвы «Центральная библиотечная система № 2 Южного административного округа», Библиотека № 4";"Кировоградская улица, дом 44, корпус 2";"37,59376";"55,596856";"Южный административный округ";"район Чертаново Южное";"(499) 610-29-00";"cbs2uao@yandex.ru";"cbs2uao.ru";"87036253";
255;"Государственное бюджетное учреждение культуры города Москвы «Центральная библиотечная система № 2 Южного административного округа», Библиотека № 92, информационный интеллект-центр семейного чтения и досуга";"Загородное шоссе, дом 9, корпус 1";"37,606906";"55,692596";"Южный административный округ";"Донской район";"(499) 610-29-00";"cbs2uao@yandex.ru";"cbs2uao.ru";"87036254";
256;"Государственное бюджетное учреждение культуры города Москвы «Центральная библиотечная система № 2 Южного административного округа», Центральная детская библиотека № 94, информационный интеллект-центр";"Артековская улица, дом 2, корпус 1";"37,612899";"55,650474";"Южный административный округ";"Нагорный район";"(499) 610-29-00";"cbs2uao@yandex.ru";"cbs2uao.ru";"87036255";
257;"Государственное бюджетное учреждение культуры города Москвы «Центральная библиотечная система № 2 Южного административного округа», Детская библиотека № 134";"Чертановская улица, дом 66, корпус 4";"37,583166";"55,597719";"Южный административный округ";"район Чертаново Южное";"(499) 610-29-00";"cbs2uao@yandex.ru";"cbs2uao.ru";"87036256";
258;"Государственное бюджетное учреждение культуры города Москвы «Центральная библиотечная система № 2 Южного административного округа», Детская библиотека № 138";"улица Газопровод, дом 9, корпус 2";"37,607309";"55,589966";"Южный административный округ";"район Чертаново Южное";"(499) 610-29-00";"cbs2uao@yandex.ru";"cbs2uao.ru";"87036257";
259;"Государственное бюджетное учреждение культуры города Москвы «Центральная библиотечная система № 2 Южного административного округа», Детская библиотека № 141";"Чертановская улица, дом 41, корпус 3";"37,595873";"55,608806";"Южный административный округ";"район Чертаново Центральное";"(499) 610-29-00";"cbs2uao@yandex.ru";"cbs2uao.ru";"87036258";
260;"Государственное бюджетное учреждение культуры города Москвы «Центральная библиотечная система № 2 Южного административного округа», Детская библиотека № 153, информационный интеллект-центр";"Дорожная улица, дом 20, корпус 1";"37,621862";"55,60299";"Южный административный округ";"район Чертаново Южное";"(499) 610-29-00";"cbs2uao@yandex.ru";"cbs2uao.ru";"87036259";
261;"Государственное бюджетное учреждение культуры города Москвы «Центральная библиотечная система № 2 Южного административного округа», Детская библиотека № 157";"Балаклавский проспект, дом 12, корпус 3";"37,607701";"55,641697";"Южный административный округ";"Нагорный район";"(499) 610-29-00";"cbs2uao@yandex.ru";"cbs2uao.ru";"87036260";
262;"Государственное бюджетное учреждение культуры города Москвы «Центральная библиотечная система № 2 Южного административного округа», Центральная библиотека № 165 имени Ф.И. Тютчева, информационный интеллект-центр";"Чонгарский бульвар, дом 10, корпус 2";"37,613539";"55,654167";"Южный административный округ";"Нагорный район";"(499) 610-29-00";"cbs2uao@yandex.ru";"cbs2uao.ru";"87036261";
263;"Государственное бюджетное учреждение культуры города Москвы «Центральная библиотечная система № 2 Южного административного округа», Библиотека № 165";"Севастопольский проспект, дом 3, корпус 8";"37,612406";"55,691674";"Южный административный округ";"Донской район";"(499) 610-29-00";"cbs2uao@yandex.ru";"cbs2uao.ru";"87036262";
264;"Государственное бюджетное учреждение культуры города Москвы «Центральная библиотечная система № 2 Южного административного округа», Библиотека № 167, информационный интеллект-центр";"улица Газопровод, дом 9, корпус 2";"37,607309";"55,589966";"Южный административный округ";"район Чертаново Южное";"(499) 610-29-00";"cbs2uao@yandex.ru";"cbs2uao.ru";"87036263";
265;"Государственное бюджетное учреждение культуры города Москвы «Центральная библиотечная система № 2 Южного административного округа», Библиотека № 169";"улица Подольских Курсантов, дом 14, корпус 1";"37,619547";"55,60723";"Южный административный округ";"район Чертаново Южное";"(499) 610-29-00";"cbs2uao@yandex.ru";"cbs2uao.ru";"87036264";
266;"Государственное бюджетное учреждение культуры города Москвы «Центральная библиотечная система № 2 Южного административного округа», Библиотека № 170";"Сумской проезд, дом 3, корпус 1";"37,61064";"55,631988";"Южный административный округ";"район Чертаново Северное";"(499) 610-29-00";"cbs2uao@yandex.ru";"cbs2uao.ru";"87036265";
267;"Государственное бюджетное учреждение культуры города Москвы «Центральная библиотечная система № 2 Южного административного округа», Библиотека № 188";"Булатниковский проезд, дом 2В, корпус 6";"37,647764";"55,595888";"Южный административный округ";"район Бирюлёво Западное";"(499) 610-29-00";"cbs2uao@yandex.ru";"cbs2uao.ru";"87036266";
268;"Государственное бюджетное учреждение культуры города Москвы «Центральная библиотечная система № 2 Южного административного округа», Библиотека № 198, информационный интеллект-центр";"Чертановская улица, дом 27, корпус 2";"37,598956";"55,616538";"Южный административный округ";"район Чертаново Центральное";"(499) 610-29-00";"cbs2uao@yandex.ru";"cbs2uao.ru";"87036267";
269;"Государственное бюджетное учреждение культуры города Москвы «Центральная библиотечная система № 2 Южного административного округа», Библиотека № 233";"Медынская улица, дом 11, строение";"37,649775";"55,581681";"Южный административный округ";"район Бирюлёво Западное";"(499) 610-29-00";"cbs2uao@yandex.ru";"cbs2uao.ru";"87036268";
270;"Государственное бюджетное учреждение культуры города Москвы «Центральная библиотечная система № 2 Южного административного округа», Библиотека № 237";"Чертановская улица, дом 52, корпус 2";"37,58672";"55,604443";"Южный административный округ";"район Чертаново Южное";"(499) 610-29-00";"cbs2uao@yandex.ru";"cbs2uao.ru";"87036269";
271;"Государственное бюджетное учреждение культуры города Москвы «Центральная библиотечная система № 2 Южного административного округа», Библиотека № 249";"Россошанская улица, дом 7, корпус 1";"37,610607";"55,596439";"Южный административный округ";"район Чертаново Южное";"(499) 610-29-00";"cbs2uao@yandex.ru";"cbs2uao.ru";"87036270";
272;"Государственное бюджетное учреждение культуры города Москвы «Центральная библиотечная система № 2 Южного административного округа», Библиотека № 256";"Криворожская улица, дом 29, корпус 2";"37,607975";"55,669607";"Южный административный округ";"Нагорный район";"(499) 610-29-00";"cbs2uao@yandex.ru";"cbs2uao.ru";"87036271";
273;"Государственное бюджетное учреждение культуры города Москвы «Центральная библиотечная система № 3 Южного административного округа», Библиотека № 18 имени Н. Островского, информационный интеллект-центр";"3-й Павловский переулок, дом 14";"37,630096";"55,718385";"Южный административный округ";"Даниловский район";"(499) 615-15-85";"cbs3uao@rambler.ru";"cbs3-uao.ru";"87036272";
274;"Государственное бюджетное учреждение культуры города Москвы «Центральная библиотечная система № 3 Южного административного округа», Детская библиотека № 87";"Коломенская набережная, дом 6";"37,708388";"55,683472";"Южный административный округ";"район Нагатинский Затон";"(499) 615-15-85";"cbs3uao@rambler.ru";"cbs3-uao.ru";"87036273";
275;"Государственное бюджетное учреждение культуры города Москвы «Центральная библиотечная система № 3 Южного административного округа», Детская библиотека № 122";"проспект Андропова, дом 17, корпус 1";"37,66709";"55,682747";"Южный административный округ";"район Нагатинский Затон";"(499) 615-15-85";"cbs3uao@rambler.ru";"cbs3-uao.ru";"87036274";
276;"Государственное бюджетное учреждение культуры города Москвы «Центральная библиотечная система № 3 Южного административного округа», Детская библиотека № 125";"3-й Павловский переулок, дом 14";"37,630096";"55,718385";"Южный административный округ";"Даниловский район";"(499) 615-15-85";"cbs3uao@rambler.ru";"cbs3-uao.ru";"87036275";
277;"Государственное бюджетное учреждение культуры города Москвы «Центральная библиотечная система «Волгоградская», Детская библиотека № 121";"Ташкентская улица, дом 18, корпус 1";"37,812993";"55,702323";"Юго-Восточный административный округ";"район Выхино-Жулебино";"(499) 170-84-10";"cb194@yandex.ru";"biblios.ru";"87036184";
278;"Государственное бюджетное учреждение культуры города Москвы «Центральная библиотечная система «Волгоградская», Библиотека № 131";"Перовское шоссе, дом 16/2";"37,751413";"55,735663";"Юго-Восточный административный округ";"Нижегородский район";"(499) 170-84-10";"cb194@yandex.ru";"biblios.ru";"87036185";
279;"Государственное бюджетное учреждение культуры города Москвы «Центральная библиотечная система «Волгоградская», Детская библиотека № 132";"Жигулевская улица, дом 6, корпус 2";"37,759713";"55,711455";"Юго-Восточный административный округ";"район Кузьминки";"(499) 170-84-10";"cb194@yandex.ru";"biblios.ru";"87036186";
280;"Государственное бюджетное учреждение культуры города Москвы «Центральная библиотечная система «Волгоградская», Библиотека № 142";"улица Федора Полетаева, дом 28";"37,783254";"55,708317";"Юго-Восточный административный округ";"район Кузьминки";"(499) 170-84-10";"cb194@yandex.ru";"biblios.ru";"87036187";
281;"Государственное бюджетное учреждение культуры города Москвы «Центральная библиотечная система «Волгоградская», Библиотека № 143";"Яснополянская улица, дом 3, корпус 2";"37,787292";"55,722662";"Юго-Восточный административный округ";"Рязанский район";"(499) 170-84-10";"cb194@yandex.ru";"biblios.ru";"87036188";
282;"Государственное бюджетное учреждение культуры города Москвы «Центральная библиотечная система «Волгоградская», Библиотека № 19";"Зарайская улица, дом 56а";"37,774317";"55,727217";"Юго-Восточный административный округ";"Рязанский район";"(499) 170-84-10";"cb194@yandex.ru";"biblios.ru";"87036189";
283;"Государственное бюджетное учреждение культуры города Москвы «Центральная библиотечная система «Волгоградская», Библиотека № 210 семейного чтения";"2-я Вольская улица, дом 20";"37,92091";"55,686158";"Юго-Восточный административный округ";"район Некрасовка";"(499) 170-84-10";"cb194@yandex.ru";"biblios.ru";"87036190";
284;"Государственное бюджетное учреждение культуры города Москвы «Центральная библиотечная система «Волгоградская», Библиотека № 213";"Ташкентская улица, дом 18, корпус 1";"37,812993";"55,702323";"Юго-Восточный административный округ";"район Выхино-Жулебино";"(499) 170-84-10";"cb194@yandex.ru";"biblios.ru";"87036191";
285;"Государственное бюджетное учреждение культуры города Москвы «Центральная библиотечная система «Волгоградская», Библиотека № 222 семейного чтения";"Рязанский проспект, дом 95, корпус 2";"37,810254";"55,715287";"Юго-Восточный административный округ";"район Выхино-Жулебино";"(499) 170-84-10";"cb194@yandex.ru";"biblios.ru";"87036192";
286;"Государственное бюджетное учреждение культуры города Москвы «Центральная библиотечная система «Лефортово», Библиотека № 10";"улица Верхняя Хохловка, дом 39/47";"37,721576";"55,73333";"Юго-Восточный административный округ";"Нижегородский район";"(499) 763-52-16";"cbs@cbslefort.ru";"cbslefort.ru";"87036193";
287;"Государственное бюджетное учреждение культуры города Москвы «Центральная библиотечная система «Лефортово», Юношеская библиотека № 16 имени А. Грина";"Волочаевская улица, дом 14А";"37,679235";"55,755916";"Юго-Восточный административный округ";"район Лефортово";"(499) 763-52-16";"cbs@cbslefort.ru";"cbslefort.ru";"87036194";
288;"Государственное бюджетное учреждение культуры города Москвы «Центральная библиотечная система «Лефортово», Библиотека № 17";"улица Сайкина, дом 9/1";"37,668784";"55,70733";"Юго-Восточный административный округ";"Южнопортовый район";"(499) 763-52-16";"cbs@cbslefort.ru";"cbslefort.ru";"87036195";
289;"Государственное бюджетное учреждение культуры города Москвы «Центральная библиотечная система «Лефортово», Библиотека № 69";"Нижегородская улица, дом 70, корпус 1";"37,70912";"55,733469";"Юго-Восточный административный округ";"Нижегородский район";"(499) 763-52-16";"cbs@cbslefort.ru";"cbslefort.ru";"87036196";
290;"Государственное бюджетное учреждение культуры города Москвы «Центральная библиотечная система «Лефортово», Детская библиотека № 72";"Сторожевая улица, дом 22, корпус 1";"37,71153";"55,765625";"Юго-Восточный административный округ";"район Лефортово";"(499) 763-52-16";"cbs@cbslefort.ru";"cbslefort.ru";"87036197";
291;"Государственное бюджетное учреждение культуры города Москвы «Центральная библиотечная система «Лефортово», Библиотека № 73";"Красноказарменная улица, дом 10";"37,697849";"55,75742";"Юго-Восточный административный округ";"район Лефортово";"(499) 763-52-16";"cbs@cbslefort.ru";"cbslefort.ru";"87036198";
292;"Государственное бюджетное учреждение культуры города Москвы «Центральная библиотечная система «Лефортово», Центральная детская библиотека № 85";"улица Трофимова, дом 15";"37,672776";"55,703189";"Юго-Восточный административный округ";"Южнопортовый район";"(499) 763-52-16";"cbs@cbslefort.ru";"cbslefort.ru";"87036199";
293;"Государственное бюджетное учреждение культуры города Москвы «Центральная библиотечная система «Лефортово», Библиотека № 87";"шоссе Энтузиастов, дом 24/43";"37,718287";"55,751079";"Юго-Восточный административный округ";"район Лефортово";"(499) 763-52-16";"cbs@cbslefort.ru";"cbslefort.ru";"87036200";
294;"Государственное бюджетное учреждение культуры города Москвы «Центральная библиотечная система «Лефортово», Центральная библиотека № 122";"шоссе Энтузиастов, дом 20";"37,71544";"55,750861";"Юго-Восточный административный округ";"район Лефортово";"(499) 763-52-16";"cbs@cbslefort.ru";"cbslefort.ru";"87036201";
295;"Государственное бюджетное учреждение культуры города Москвы «Центральная библиотечная система «Лефортово», Библиотека № 124";"Ухтомская улица, дом 21";"37,715666";"55,767458";"Юго-Восточный административный округ";"район Лефортово";"(499) 763-52-16";"cbs@cbslefort.ru";"cbslefort.ru";"87036202";
296;"Государственное бюджетное учреждение культуры города Москвы «Центральная библиотечная система «Лефортово», Библиотека № 125";"Энергетическая улица, дом 4";"37,702668";"55,760833";"Юго-Восточный административный округ";"район Лефортово";"(499) 763-52-16";"cbs@cbslefort.ru";"cbslefort.ru";"87036203";
297;"Государственное бюджетное учреждение культуры города Москвы «Центральная библиотечная система «Лефортово», Библиотека № 136";"улица Рогожский Посёлок, дом 5";"37,701896";"55,737512";"Юго-Восточный административный округ";"Нижегородский район";"(499) 763-52-16";"cbs@cbslefort.ru";"cbslefort.ru";"87036204";
298;"Государственное бюджетное учреждение культуры города Москвы «Центральная библиотечная система «Лефортово», Библиотека № 147";"Велозаводская улица, дом 11/1";"37,667274";"55,711006";"Юго-Восточный административный округ";"Южнопортовый район";"(499) 763-52-16";"cbs@cbslefort.ru";"cbslefort.ru";"87036205";
299;"Государственное бюджетное учреждение культуры города Москвы «Центральная библиотечная система «Лефортово», Библиотека № 149";"улица Петра Романова, дом 6";"37,680714";"55,708161";"Юго-Восточный административный округ";"Южнопортовый район";"(499) 763-52-16";"cbs@cbslefort.ru";"cbslefort.ru";"87036206";
300;"Государственное бюджетное учреждение культуры города Москвы «Центральная библиотечная система «Лефортово», Библиотека № 153";"улица Трофимова, дом 29";"37,681063";"55,702866";"Юго-Восточный административный округ";"Южнопортовый район";"(499) 763-52-16";"cbs@cbslefort.ru";"cbslefort.ru";"87036207";
301;"Государственное бюджетное учреждение культуры города Москвы «Центральная библиотечная система «Люблино», Библиотека семейного чтения № 30";"улица Перерва, дом 56/2";"37,748041";"55,658006";"Юго-Восточный административный округ";"район Марьино";"(499) 178-75-76; (499) 178-05-90";"bibl42@mail.ru";"infokniga.ru";"87036208";
302;"Государственное бюджетное учреждение культуры города Москвы «Центральная библиотечная система «Люблино», Детская библиотека № 31";"Братиславская улица, дом 19, корпус 1";"37,761462";"55,65782";"Юго-Восточный административный округ";"район Марьино";"(499) 178-75-76; (499) 178-05-90";"bibl42@mail.ru";"infokniga.ru";"87036209";
303;"Государственное бюджетное учреждение культуры города Москвы «Центральная библиотечная система «Люблино», Библиотека № 32";"Краснодарская улица, дом 20/1";"37,750696";"55,677237";"Юго-Восточный административный округ";"район Люблино";"(499) 178-75-76; (499) 178-05-90";"bibl42@mail.ru";"infokniga.ru";"87036210";
304;"Государственное бюджетное учреждение культуры города Москвы «Центральная библиотечная система «Люблино», Библиотека № 33";"Братиславская улица, дом 26";"37,763581";"55,654143";"Юго-Восточный административный округ";"район Марьино";"(499) 178-75-76; (499) 178-05-90";"bibl42@mail.ru";"infokniga.ru";"87036211";
305;"Государственное бюджетное учреждение культуры города Москвы «Центральная библиотечная система «Люблино», Детская библиотека № 34";"1-я Курьяновская улица, дом 31";"37,702971";"55,654156";"Юго-Восточный административный округ";"район Печатники";"(499) 178-75-76; (499) 178-05-90";"bibl42@mail.ru";"infokniga.ru";"87036212";
306;"Государственное бюджетное учреждение культуры города Москвы «Центральная библиотечная система «Люблино», Центральная библиотека № 42";"улица Чистова, дом 15/15";"37,744799";"55,69726";"Юго-Восточный административный округ";"район Текстильщики";"(499) 178-75-76; (499) 178-05-90";"bibl42@mail.ru";"infokniga.ru";"87036213";
307;"Государственное бюджетное учреждение культуры города Москвы «Центральная библиотечная система «Люблино», Центральная библиотека № 42, Отдел комплектования и обработки";"7-я улица Текстильщиков, дом 14";"37,747345";"55,696128";"Юго-Восточный административный округ";"район Текстильщики";"(499) 178-75-76; (499) 178-05-90";"bibl42@mail.ru";"infokniga.ru";"87036214";
308;"Государственное бюджетное учреждение культуры города Москвы «Центральная библиотечная система «Люблино», Центральная библиотека № 42, ОГБ";"Краснодонская улица, дом 24";"37,748264";"55,674189";"Юго-Восточный административный округ";"район Люблино";"(499) 178-75-76; (499) 178-05-90";"bibl42@mail.ru";"infokniga.ru";"87036215";
309;"Государственное бюджетное учреждение культуры города Москвы «Центральная библиотечная система «Люблино», Центральная детская библиотека № 80";"8-я улица Текстильщиков, дом 14";"37,746243";"55,701943";"Юго-Восточный административный округ";"район Текстильщики";"(499) 178-75-76; (499) 178-05-90";"bibl42@mail.ru";"infokniga.ru";"87036216";
310;"Государственное бюджетное учреждение культуры города Москвы «Центральная библиотечная система «Люблино», Детская библиотека № 81";"Саратовская улица, дом 18/10";"37,741627";"55,714544";"Юго-Восточный административный округ";"район Текстильщики";"(499) 178-75-76; (499) 178-05-90";"bibl42@mail.ru";"infokniga.ru";"87036217";
311;"Государственное бюджетное учреждение культуры города Москвы «Центральная библиотечная система «Люблино», Детская библиотека № 82";"Краснодарская улица, дом 20/1";"37,750696";"55,677237";"Юго-Восточный административный округ";"район Люблино";"(499) 178-75-76; (499) 178-05-90";"bibl42@mail.ru";"infokniga.ru";"87036218";
312;"Государственное бюджетное учреждение культуры города Москвы «Центральная библиотечная система «Люблино», Детская библиотека № 127";"улица Перерва, дом 24";"37,731223";"55,651824";"Юго-Восточный административный округ";"район Марьино";"(499) 178-75-76; (499) 178-05-90";"bibl42@mail.ru";"infokniga.ru";"87036219";
313;"Государственное бюджетное учреждение культуры города Москвы «Центральная библиотечная система «Люблино», Библиотека № 133";"Шоссейная улица, дом 50";"37,721835";"55,679389";"Юго-Восточный административный округ";"район Печатники";"(499) 178-75-76; (499) 178-05-90";"bibl42@mail.ru";"infokniga.ru";"87036220";
314;"Государственное бюджетное учреждение культуры города Москвы «Центральная библиотечная система «Люблино», Библиотека № 137";"Саратовская улица, дом 1, корпус 2";"37,730832";"55,713812";"Юго-Восточный административный округ";"район Текстильщики";"(499) 178-75-76; (499) 178-05-90";"bibl42@mail.ru";"infokniga.ru";"87036221";
315;"Государственное бюджетное учреждение культуры города Москвы «Центральная библиотечная система «Люблино», Библиотека № 139";"Батюнинская улица, дом 14";"37,705909";"55,659552";"Юго-Восточный административный округ";"район Печатники";"(499) 178-75-76; (499) 178-05-90";"bibl42@mail.ru";"infokniga.ru";"87036222";
316;"Государственное бюджетное учреждение культуры города Москвы «Центральная библиотечная система «Люблино», Библиотека № 140";"Тихорецкий бульвар, дом 12, корпус 1";"37,774335";"55,677449";"Юго-Восточный административный округ";"район Люблино";"(499) 178-75-76; (499) 178-05-90";"bibl42@mail.ru";"infokniga.ru";"87036223";
317;"Государственное бюджетное учреждение культуры города Москвы «Центральная библиотечная система «Люблино», Детская библиотека № 142";"Шоссейная улица, дом 50";"37,721835";"55,679389";"Юго-Восточный административный округ";"район Печатники";"(499) 178-75-76; (499) 178-05-90";"bibl42@mail.ru";"infokniga.ru";"87036224";
318;"Государственное бюджетное учреждение культуры города Москвы «Центральная библиотечная система «Люблино», Библиотека № 151";"5-й квартал Капотня, дом 17";"37,802662";"55,633005";"Юго-Восточный административный округ";"район Капотня";"(499) 178-75-76; (499) 178-05-90";"bibl42@mail.ru";"infokniga.ru";"87036225";
319;"Государственное бюджетное учреждение культуры города Москвы «Центральная библиотечная система «Люблино», Библиотека № 152";"Донецкая улица, дом 33";"37,711629";"55,644614";"Юго-Восточный административный округ";"район Марьино";"(499) 178-75-76; (499) 178-05-90";"bibl42@mail.ru";"infokniga.ru";"87036226";
320;"Государственное бюджетное учреждение культуры города Москвы «Центральная библиотечная система «Люблино», Детская библиотека № 162";"3-й квартал Капотня, дом 13";"37,795541";"55,635569";"Юго-Восточный административный округ";"район Капотня";"(499) 178-75-76; (499) 178-05-90";"bibl42@mail.ru";"infokniga.ru";"87036227";
321;"Государственное бюджетное учреждение культуры города Москвы «Центральная библиотечная система «Люблино», Библиотека № 181";"Донецкая улица, дом 23";"37,715311";"55,647872";"Юго-Восточный административный округ";"район Марьино";"(499) 178-75-76; (499) 178-05-90";"bibl42@mail.ru";"infokniga.ru";"87036228";
322;"Государственное бюджетное учреждение культуры города Москвы «Центральная библиотечная система «Люблино», Библиотека № 232";"Кубанская улица, дом 16/2";"37,743952";"55,683806";"Юго-Восточный административный округ";"район Люблино";"(499) 178-75-76; (499) 178-05-90";"bibl42@mail.ru";"infokniga.ru";"87036229";
323;"Государственное бюджетное учреждение культуры города Москвы «Центральная библиотечная система № 1 Южного административного округа», Библиотека № 83";"домодедовская улица, дом 44";"37,714624";"55,601164";"Южный административный округ";"район Орехово-Борисово Южное";"(499) 612-72-98";"ekarimova.inbox@ru";"tolstovkainfograd.ru";"87036230";
324;"Государственное бюджетное учреждение культуры города Москвы «Центральная библиотечная система № 1 Южного административного округа», Детская библиотека № 89";"Севанская улица, дом 13, корпус 1";"37,654454";"55,622971";"Южный административный округ";"район Царицыно";"(499) 612-72-98";"ekarimova.inbox@ru";"tolstovkainfograd.ru";"87036231";
325;"Государственное бюджетное учреждение культуры города Москвы «Центральная библиотечная система «Черёмушки», Библиотека № 178";"улица Обручева, дом 51";"37,55928";"55,651376";"Юго-Западный административный округ";"район Черёмушки";"(495) 429-05-55";"b219@cheremushky.ru";"cheremushky.ru";"87036294";
326;"Государственное бюджетное учреждение культуры города Москвы «Центральная библиотечная система «Черёмушки», Библиотека № 186";"Азовская улица, дом 33, корпус 1";"37,599266";"55,648619";"Юго-Западный административный округ";"район Зюзино";"(495) 429-05-55";"b219@cheremushky.ru";"cheremushky.ru";"87036295";
327;"Государственное бюджетное учреждение культуры города Москвы «Центральная библиотечная система «Черёмушки», Библиотека № 203";"Перекопская улица, дом 36";"37,564971";"55,661119";"Юго-Западный административный округ";"район Черёмушки";"(495) 429-05-55";"b219@cheremushky.ru";"cheremushky.ru";"87036296";
328;"Государственное бюджетное учреждение культуры города Москвы «Центральная библиотечная система «Черёмушки», Центральная библиотека № 219";"Профсоюзная улица, дом 115, корпус 1";"37,519373";"55,630849";"Юго-Западный административный округ";"район Коньково";"(495) 429-05-55";"b219@cheremushky.ru";"cheremushky.ru";"87036297";
329;"Государственное бюджетное учреждение культуры города Москвы «Центральная библиотечная система «Черёмушки», Библиотека № 230, информационный интеллект-центр";"улица Академика Варги, дом 38";"37,479612";"55,632975";"Юго-Западный административный округ";"район Тёплый Стан";"(495) 429-05-55";"b219@cheremushky.ru";"cheremushky.ru";"87036298";
330;"Государственное бюджетное учреждение культуры города Москвы «Центральная библиотечная система «Черёмушки», Библиотека № 235";"Вильнюсская улица, дом 17";"37,518606";"55,596971";"Юго-Западный административный округ";"район Ясенево";"(495) 429-05-55";"b219@cheremushky.ru";"cheremushky.ru";"87036299";
331;"Государственное бюджетное учреждение культуры города Москвы «Центральная библиотечная система «Черёмушки», Библиотека № 235, пункт выдачи";"улица Паустовского, дом 3";"37,542887";"55,600223";"Юго-Западный административный округ";"район Ясенево";"(495) 429-05-55";"b219@cheremushky.ru";"cheremushky.ru";"87036300";
332;"Государственное бюджетное учреждение культуры города Москвы «Центральная библиотечная система «Юго-Запад», Библиотека № 11 имени Л.Н. Толстого";"улица Новаторов, дом 14, корпус 2";"37,523057";"55,667159";"Юго-Западный административный округ";"Обручевский район";"(495) 930-00-13; (495) 930-00-02";"lib174@cbs-uz.ru";"cbs-uz.ru";"87036301";
333;"Государственное бюджетное учреждение культуры города Москвы «Центральная библиотечная система «Юго-Запад», Библиотека № 22";"улица Новаторов, дом 14, корпус 1";"37,523151";"55,66756";"Юго-Западный административный округ";"Обручевский район";"(495) 930-00-13; (495) 930-00-02";"lib174@cbs-uz.ru";"cbs-uz.ru";"87036302";
334;"Государственное бюджетное учреждение культуры города Москвы «Центральная библиотечная система «Юго-Запад», Детская библиотека № 93";"улица Ремизова, дом 10";"37,600642";"55,6762";"Юго-Западный административный округ";"район Котловка";"(495) 930-00-13; (495) 930-00-03";"lib174@cbs-uz.ru";"cbs-uz.ru";"87036303";
335;"Государственное бюджетное учреждение культуры города Москвы «Центральная библиотечная система «Юго-Запад», Библиотека № 95 имени Н. Рубцова";"улица Дмитрия Ульянова, дом 3";"37,560715";"55,693499";"Юго-Западный административный округ";"Гагаринский район";"(495) 930-00-13; (495) 930-00-04";"lib174@cbs-uz.ru";"cbs-uz.ru";"87036304";
336;"Государственное бюджетное учреждение культуры города Москвы «Центральная библиотечная система «Юго-Запад», Библиотека № 96 имени Н.В. Гоголя";"Университетский проспект, дом 9";"37,549003";"55,696454";"Юго-Западный административный округ";"Гагаринский район";"(495) 930-00-13; (495) 930-00-05";"lib174@cbs-uz.ru";"cbs-uz.ru";"87036305";
337;"Государственное бюджетное учреждение культуры города Москвы «Центральная библиотечная система «Солнцево», Детская библиотека № 166";"Боровское шоссе, дом 46";"37,348402";"55,636328";"Западный административный округ";"район Ново-Переделкино";"(495) 495-64-92; (495) 439-54-29";"art-solncevo@yandex.ru";"art-solncevo.com";"87036343";
338;"Государственное бюджетное учреждение культуры города Москвы «Центральная библиотечная система «Солнцево», Библиотека № 179";"Родниковая улица, дом 12, корпус 1";"37,380472";"55,636951";"Западный административный округ";"район Солнцево";"(495) 495-64-92; (495) 439-54-29";"art-solncevo@yandex.ru";"art-solncevo.com";"87036344";
339;"Государственное бюджетное учреждение культуры города Москвы «Центральная библиотечная система «Солнцево», Центральная библиотека № 239";"улица Авиаторов, дом 7";"37,403499";"55,64128";"Западный административный округ";"район Солнцево";"(495) 495-64-92; (495) 439-54-29";"art-solncevo@yandex.ru";"art-solncevo.com";"87036345";
340;"Государственное бюджетное учреждение культуры города Москвы «Центральная библиотечная система «Солнцево», Библиотека № 240";"Лукинская улица, дом 11";"37,336852";"55,642757";"Западный административный округ";"район Ново-Переделкино";"(495) 495-64-92; (495) 439-54-29";"art-solncevo@yandex.ru";"art-solncevo.com";"87036346";
341;"Государственное бюджетное учреждение культуры города Москвы «Центральная библиотечная система «Солнцево», Библиотека № 241";"Солнцевский проспект, дом 30";"37,410506";"55,648964";"Западный административный округ";"район Солнцево";"(495) 495-64-92; (495) 439-54-29";"art-solncevo@yandex.ru";"art-solncevo.com";"87036347";
342;"Государственное бюджетное учреждение культуры города Москвы «Центральная библиотечная система «Солнцево», Библиотека № 242";"Производственная улица, дом 5";"37,385111";"55,649483";"Западный административный округ";"район Солнцево";"(495) 495-64-92; (495) 439-54-29";"art-solncevo@yandex.ru";"art-solncevo.com";"87036348";
343;"Государственное бюджетное учреждение культуры города Москвы «Центральная библиотечная система «Солнцево», Библиотека № 243";"Боровское шоссе, дом 33, корпус 1";"37,361677";"55,640924";"Западный административный округ";"район Ново-Переделкино";"(495) 495-64-92; (495) 439-54-29";"art-solncevo@yandex.ru";"art-solncevo.com";"87036349";
344;"Государственное бюджетное учреждение культуры города Москвы «Центральная библиотечная система «Солнцево», Детская библиотека № 243";"Ново-Переделкинская улица, дом 8";"37,369132";"55,640406";"Западный административный округ";"район Ново-Переделкино";"(495) 495-64-92; (495) 439-54-29";"art-solncevo@yandex.ru";"art-solncevo.com";"87036350";
345;"Государственное бюджетное учреждение культуры города Москвы «Центральная библиотечная система «Солнцево», Библиотека № 244";"Боровский проезд, дом 6";"37,390434";"55,655258";"Западный административный округ";"район Солнцево";"(495) 495-64-92; (495) 439-54-29";"art-solncevo@yandex.ru";"art-solncevo.com";"87036351";
346;"Государственное бюджетное учреждение культуры города Москвы «Центральная библиотечная система «Солнцево», Библиотека № 255";"деревня Толстопальцево, улица Пушкина, дом 41";"37,212164";"55,60804";"Западный административный округ";"район Внуково";"(495) 495-64-92; (495) 439-54-29";"art-solncevo@yandex.ru";"art-solncevo.com";"87036352";
347;"Государственное бюджетное учреждение культуры города Москвы «Центральная библиотечная система «Солнцево», Библиотека № 262";"улица Богданова, дом 44";"37,396472";"55,651247";"Западный административный округ";"район Солнцево";"(495) 495-64-92; (495) 439-54-29";"art-solncevo@yandex.ru";"art-solncevo.com";"87036353";
348;"Государственное бюджетное учреждение культуры города Москвы «Центральная библиотечная система «Солнцево», Библиотека «Внуково»";"Большая Внуковская улица, дом 6";"37,295105";"55,613078";"Западный административный округ";"район Внуково";"(495) 495-64-92; (495) 439-54-29";"art-solncevo@yandex.ru";"art-solncevo.com";"87036354";
349;"Государственное бюджетное учреждение культуры города Москвы «Центральная библиотечная система «Киевская», Библиотека для детей и юношества № 18";"Кастанаевская улица, дом 7";"37,495994";"55,738747";"Западный административный округ";"район Филёвский Парк";"(499) 249-29-75";"library@cbskiev.ru";"cbskiev.ru";"87036355";
350;"Государственное бюджетное учреждение культуры города Москвы «Центральная библиотечная система «Киевская», Детская библиотека «Пионер»";"Большая Дорогомиловская улица, дом 7";"37,557227";"55,746077";"Западный административный округ";"район Дорогомилово";"(499) 249-29-75";"library@cbskiev.ru";"cbskiev.ru";"87036356";
351;"Государственное бюджетное учреждение культуры города Москвы «Центральная библиотечная система «Киевская», Детская библиотека «Академия чтения»";"улица Генерала Ермолова, дом 6";"37,516322";"55,73736";"Западный административный округ";"район Дорогомилово";"(499) 249-29-75";"library@cbskiev.ru";"cbskiev.ru";"87036357";
352;"Государственное бюджетное учреждение культуры города Москвы «Центральная библиотечная система «Киевская», Центральная библиотека имени А.Н. Толстого";"Кутузовский проспект, дом 24";"37,545242";"55,744534";"Западный административный округ";"район Дорогомилово";"(499) 249-29-75";"library@cbskiev.ru";"cbskiev.ru";"87036358";
353;"Государственное бюджетное учреждение культуры города Москвы «Центральная библиотечная система «Киевская», Библиотека-культурный центр А.Т. Твардовского";"Кутузовский проспект, дом 3";"37,569521";"55,750404";"Западный административный округ";"район Дорогомилово";"(499) 249-29-75";"library@cbskiev.ru";"cbskiev.ru";"87036359";
354;"Государственное бюджетное учреждение культуры города Москвы «Центральная библиотечная система «Киевская», Библиотека имени Т.Г. Шевченко";"улица Генерала Ермолова, дом 6";"37,516322";"55,73736";"Западный административный округ";"район Дорогомилово";"(499) 249-29-75";"library@cbskiev.ru";"cbskiev.ru";"87036360";
355;"Государственное бюджетное учреждение культуры города Москвы «Центральная библиотечная система «Киевская», Библиотека имени Леси Украинки";"Новозаводская улица, дом 2, корпус 5";"37,515775";"55,747303";"Западный административный округ";"район Филёвский Парк";"(499) 249-29-75";"library@cbskiev.ru";"cbskiev.ru";"87036361";
356;"Государственное бюджетное учреждение культуры города Москвы «Центральная библиотечная система «Гагаринская», Центральная детская библиотека № 14";"улица Удальцова, дом 4";"37,51758";"55,672935";"Западный административный округ";"район Проспект Вернадского";"(495) 433-53-44";"dir@gagarinlib.ru";"gagarinlib.ru";"87036362";
357;"Государственное бюджетное учреждение культуры города Москвы «Центральная библиотечная система «Гагаринская», Библиотека № 29";"Нежинская улица, дом 13";"37,470933";"55,70644";"Западный административный округ";"район Очаково-Матвеевское";"(495) 433-53-44";"dir@gagarinlib.ru";"gagarinlib.ru";"87036363";
358;"Государственное бюджетное учреждение культуры города Москвы «Центральная библиотечная система «Гагаринская», Библиотека № 30 семейного чтения";"улица Наташи Ковшовой, дом 7/1";"37,453954";"55,68319";"Западный административный округ";"район Очаково-Матвеевское";"(495) 433-53-44";"dir@gagarinlib.ru";"gagarinlib.ru";"87036364";
359;"Государственное бюджетное учреждение культуры города Москвы «Центральная библиотечная система «Гагаринская», Библиотека № 31 «Библиотечно-музейный центр «Олимпионик»";"Мичуринский проспект, дом 54А";"37,490567";"55,693897";"Западный административный округ";"район Раменки";"(495) 433-53-44";"dir@gagarinlib.ru";"gagarinlib.ru";"87036365";
360;"Государственное бюджетное учреждение культуры города Москвы «Центральная библиотечная система «Гагаринская», Библиотека № 34 семейного чтения";"улица Довженко, дом 6";"37,513571";"55,721795";"Западный административный округ";"район Раменки";"(495) 433-53-44";"dir@gagarinlib.ru";"gagarinlib.ru";"87036366";
361;"Государственное бюджетное учреждение культуры города Москвы «Центральная библиотечная система «Юго-Запад», Библиотека № 99 имени А.Л. Барто";"улица Дмитрия Ульянова, дом 24";"37,574523";"55,68688";"Юго-Западный административный округ";"Академический район";"(495) 930-00-13; (495) 930-00-06";"lib174@cbs-uz.ru";"cbs-uz.ru";"87036306";
362;"Государственное бюджетное учреждение культуры города Москвы «Центральная библиотечная система «Юго-Запад», Библиотека № 114";"улица Вавилова, дом 86";"37,541063";"55,676932";"Юго-Западный административный округ";"Ломоносовский район";"(495) 930-00-13; (495) 930-00-07";"lib174@cbs-uz.ru";"cbs-uz.ru";"87036307";
363;"Государственное бюджетное учреждение культуры города Москвы «Центральная библиотечная система «Юго-Запад», Библиотека № 144";"Болотниковская улица, дом 44, корпус 1";"37,585805";"55,662558";"Юго-Западный административный округ";"район Зюзино";"(495) 930-00-13; (495) 930-00-08";"lib174@cbs-uz.ru";"cbs-uz.ru";"87036308";
364;"Государственное бюджетное учреждение культуры города Москвы «Центральная библиотечная система «Юго-Запад», Библиотека № 161";"улица Дмитрия Ульянова, дом 43, корпус 1";"37,59252";"55,681773";"Юго-Западный административный округ";"район Котловка";"(495) 930-00-13; (495) 930-00-09";"lib174@cbs-uz.ru";"cbs-uz.ru";"87036309";
365;"Государственное бюджетное учреждение культуры города Москвы «Центральная библиотечная система «Юго-Запад», Библиотека № 166";"Нагорный бульвар, дом 3";"37,593049";"55,674739";"Юго-Западный административный округ";"район Котловка";"(495) 930-00-13; (495) 930-00-10";"lib174@cbs-uz.ru";"cbs-uz.ru";"87036310";
366;"Государственное бюджетное учреждение культуры города Москвы «Центральная библиотечная система «Юго-Запад», Библиотека № 173 имени С. Есенина";"улица Кржижановского, дом 15, корпус 5";"37,572586";"55,68046";"Юго-Западный административный округ";"Академический район";"(495) 930-00-13; (495) 930-00-11";"lib174@cbs-uz.ru";"cbs-uz.ru";"87036311";
367;"Государственное бюджетное учреждение культуры города Москвы «Центральная библиотечная система «Юго-Запад», Центральная библиотека № 174 имени Данте Алигьери";"улица Строителей, дом 8, корпус 2";"37,534664";"55,689707";"Юго-Западный административный округ";"Гагаринский район";"(495) 930-00-13; (495) 930-00-12";"lib174@cbs-uz.ru";"cbs-uz.ru";"87036312";
368;"Государственное бюджетное учреждение культуры города Москвы «Центральная библиотечная система «Юго-Запад», Библиотека № 175";"Новочеремушкинская улица, дом 4, корпус 2";"37,58611";"55,690475";"Юго-Западный административный округ";"Академический район";"(495) 930-00-13; (495) 930-00-13";"lib174@cbs-uz.ru";"cbs-uz.ru";"87036313";
369;"Государственное бюджетное учреждение культуры города Москвы «Центральная библиотечная система «Юго-Запад», Библиотека № 177";"улица Марии Ульяновой, дом 3, корпус 3";"37,525415";"55,678043";"Юго-Западный административный округ";"Ломоносовский район";"(495) 930-00-13; (495) 930-00-14";"lib174@cbs-uz.ru";"cbs-uz.ru";"87036314";
370;"Государственное бюджетное учреждение культуры города Москвы «Центральная библиотечная система «Юго-Запад», информационный интеллект-центр «Обручевский» «Азбука»";"улица Обручева, дом 24";"37,51833";"55,657306";"Юго-Западный административный округ";"Обручевский район";"(495) 930-00-13; (495) 930-00-15";"lib174@cbs-uz.ru";"cbs-uz.ru";"87036315";
371;"Государственное бюджетное учреждение культуры города Москвы «Центральная библиотечная система «Юго-Запад», Библиотека «Обручевский», Пункт выдачи № 1";"Университетский проспект, дом 4";"37,554417";"55,696808";"Юго-Западный административный округ";"Гагаринский район";"(495) 930-00-13; (495) 930-00-16";"lib174@cbs-uz.ru";"cbs-uz.ru";"87036316";
372;"Государственное бюджетное учреждение культуры города Москвы «Центральная библиотечная система «Юго-Запад», Библиотека «Обручевский», Пункт выдачи № 2";"Панферова улица, дом 12";"37,543287";"55,681542";"Юго-Западный административный округ";"Ломоносовский район";"(495) 930-00-13; (495) 930-00-17";"lib174@cbs-uz.ru";"cbs-uz.ru";"87036317";
373;"Государственное бюджетное учреждение культуры города Москвы «Центральная библиотечная система «Юго-Запад», Библиотека «Наследие»";"Симферопольский бульвар, дом 24, корпус 1";"37,603369";"55,645836";"Юго-Западный административный округ";"район Зюзино";"(495) 930-00-13; (495) 930-00-18";"lib174@cbs-uz.ru";"cbs-uz.ru";"87036318";
374;"Государственное бюджетное учреждение культуры города Москвы «Центральная библиотечная система «Бутово», Библиотека № 236, информационный интеллект-центр";"Старобитцевская улица, дом 23, корпус 2";"37,574012";"55,578564";"Юго-Западный административный округ";"район Северное Бутово";"(499)726-26-81";"info.prospekt@gmail.com";"cbsbutovo.ru";"87036320";
375;"Государственное бюджетное учреждение культуры города Москвы «Центральная библиотечная система «Бутово», Библиотека № 237, информационный интеллект-центр";"улица Грина, дом 11";"37,566773";"55,567391";"Юго-Западный административный округ";"район Северное Бутово";"(499)726-26-81";"info.prospekt@gmail.com";"cbsbutovo.ru";"87036321";
376;"Государственное бюджетное учреждение культуры города Москвы «Центральная библиотечная система «Бутово», Библиотека «Горизонт», информационный интеллект-центр";"улица Адмирала Лазарева, дом 61";"37,508102";"55,538111";"Юго-Западный административный округ";"район Южное Бутово";"(499)726-26-81";"info.prospekt@gmail.com";"cbsbutovo.ru";"87036322";
377;"Государственное бюджетное учреждение культуры города Москвы «Центральная библиотечная система «Бутово», Библиотека «Патриот», информационный интеллект-центр";"улица Брусилова, дом 27";"37,592636";"55,500297";"Юго-Западный административный округ";"район Южное Бутово";"(499)726-26-81";"info.prospekt@gmail.com";"cbsbutovo.ru";"87036323";
378;"Государственное бюджетное учреждение культуры города Москвы «Центральная библиотечная система «Бутово», Библиотека «Юность», информационный интеллект-центр";"улица Маршала Савицкого, дом 12, корпус 1";"37,583437";"55,503432";"Юго-Западный административный округ";"район Южное Бутово";"(499)726-26-81";"info.prospekt@gmail.com";"cbsbutovo.ru";"87036324";
379;"Государственное бюджетное учреждение культуры города Москвы «Центральная библиотечная система «Бутово», Библиотека № 248";"Вокзальная площадь, дом 2, строение 2";"37,573365";"55,542084";"Юго-Западный административный округ";"район Южное Бутово";"(499)726-26-81";"info.prospekt@gmail.com";"cbsbutovo.ru";"87036325";
380;"Государственное бюджетное учреждение культуры города Москвы «Центральная библиотечная система «Бутово», Библиотека № 250";"бульвар Адмирала Ушакова, дом 11";"37,549293";"55,546006";"Юго-Западный административный округ";"район Южное Бутово";"(499)726-26-81";"info.prospekt@gmail.com";"cbsbutovo.ru";"87036326";
381;"Государственное бюджетное учреждение культуры города Москвы «Центральная библиотечная система «Кунцево», Центральная детская библиотека № 17 имени Берестова";"улица Крылатские Холмы, дом 34";"37,410678";"55,764832";"Западный административный округ";"район Крылатское";"(495) 415-94-04";"info@kunlib.ru";"cls-kuntsevo.ru";"87036327";
382;"Государственное бюджетное учреждение культуры города Москвы «Центральная библиотечная система «Кунцево», Детская библиотека № 20";"улица Ивана Франко, дом 32, корпус 1";"37,421462";"55,728091";"Западный административный округ";"район Кунцево";"(495) 415-94-04";"info@kunlib.ru";"cls-kuntsevo.ru";"87036328";
383;"Государственное бюджетное учреждение культуры города Москвы «Центральная библиотечная система «Кунцево», Библиотека № 22 имени И.Е. Забелина";"Кременчугская улица, дом 6, корпус 1";"37,460253";"55,723861";"Западный административный округ";"район Фили-Давыдково";"(495) 415-94-04";"info@kunlib.ru";"cls-kuntsevo.ru";"87036329";
384;"Государственное бюджетное учреждение культуры города Москвы «Центральная библиотечная система «Кунцево», Библиотека № 38 имени Б. Пастернака";"Беловежская улица, дом 53 корпус 2";"37,396493";"55,709462";"Западный административный округ";"Можайский район";"(495) 415-94-04";"info@kunlib.ru";"cls-kuntsevo.ru";"87036330";
385;"Государственное бюджетное учреждение культуры города Москвы «Центральная библиотечная система «Кунцево», Библиотека № 40 имени Э. Багрицкого";"улица Багрицкого, дом 51";"37,437705";"55,719452";"Западный административный округ";"Можайский район";"(495) 415-94-04";"info@kunlib.ru";"cls-kuntsevo.ru";"87036331";
386;"Государственное бюджетное учреждение культуры города Москвы «Центральная библиотечная система «Кунцево», Библиотека № 41 «Истоки»";"улица Боженко, дом 14, корпус 4";"37,407642";"55,732778";"Западный административный округ";"район Кунцево";"(495) 415-94-04";"info@kunlib.ru";"cls-kuntsevo.ru";"87036332";
387;"Государственное бюджетное учреждение культуры города Москвы «Центральная библиотечная система «Кунцево», Библиотека № 106 имени В. Бианки";"Большая Филевская улица, дом 43";"37,474347";"55,740936";"Западный административный округ";"район Фили-Давыдково";"(495) 415-94-04";"info@kunlib.ru";"cls-kuntsevo.ru";"87036333";
388;"Государственное бюджетное учреждение культуры города Москвы «Центральная библиотечная система «Кунцево», Детская библиотека № 111";"Рублёвское шоссе, дом 44, корпус 2";"37,412553";"55,752499";"Западный административный округ";"район Крылатское";"(495) 415-94-04";"info@kunlib.ru";"cls-kuntsevo.ru";"87036334";
389;"Государственное бюджетное учреждение культуры города Москвы «Центральная библиотечная система «Кунцево», Детская библиотека № 147";"Беловежская улица, дом 39, корпус 3";"37,394636";"55,710722";"Западный административный округ";"Можайский район";"(495) 415-94-04";"info@kunlib.ru";"cls-kuntsevo.ru";"87036335";
390;"Государственное бюджетное учреждение культуры города Москвы «Центральная библиотечная система «Кунцево», Библиотека № 182";"Обводное шоссе, дом 6";"37,357277";"55,784132";"Западный административный округ";"район Кунцево";"(495) 415-94-04";"info@kunlib.ru";"cls-kuntsevo.ru";"87036336";
391;"Государственное бюджетное учреждение культуры города Москвы «Центральная библиотечная система «Кунцево», Библиотека семейного чтения № 185";"Кастанаевская улица, дом 52";"37,469747";"55,734597";"Западный административный округ";"район Фили-Давыдково";"(495) 415-94-04";"info@kunlib.ru";"cls-kuntsevo.ru";"87036337";
392;"Государственное бюджетное учреждение культуры города Москвы «Центральная библиотечная система «Кунцево», Библиотека № 193 имени А. Ахматовой";"улица Крылатские Холмы, дом 34";"37,410678";"55,764832";"Западный административный округ";"район Крылатское";"(495) 415-94-04";"info@kunlib.ru";"cls-kuntsevo.ru";"87036338";
393;"Государственное бюджетное учреждение культуры города Москвы «Центральная библиотечная система «Кунцево», Юношеская библиотека № 228 имени Н. Гумилева";"Кременчугская улица, дом 22";"37,461314";"55,717995";"Западный административный округ";"район Фили-Давыдково";"(495) 415-94-04";"info@kunlib.ru";"cls-kuntsevo.ru";"87036339";
394;"Государственное бюджетное учреждение культуры города Москвы «Центральная библиотечная система «Кунцево», Библиотека № 272 «Бестселлер»";"Аминьевское шоссе, дом 24";"37,452949";"55,716005";"Западный административный округ";"район Фили-Давыдково";"(495) 415-94-04";"info@kunlib.ru";"cls-kuntsevo.ru";"87036340";
395;"Государственное бюджетное учреждение культуры города Москвы «Центральная библиотечная система «Солнцево», Библиотека № 33";"Большая Внуковская улица, дом 23";"37,297273";"55,610188";"Западный административный округ";"район Внуково";"(495) 495-64-92; (495) 439-54-29";"art-solncevo@yandex.ru";"art-solncevo.com";"87036341";
396;"Государственное бюджетное учреждение культуры города Москвы «Центральная библиотечная система «Солнцево», Центральная детская библиотека № 163";"улица Богданова, дом 14";"37,407806";"55,657449";"Западный административный округ";"район Солнцево";"(495) 495-64-92; (495) 439-54-29";"art-solncevo@yandex.ru";"art-solncevo.com";"87036342";
397;"Государственное бюджетное учреждение культуры города Москвы «Центральная библиотечная система № 3 Южного административного округа», Библиотека № 148 имени К.М. Симонова";"Коломенская улица, дом 9, строение 5";"37,704292";"55,680168";"Южный административный округ";"район Нагатинский Затон";"(499) 615-15-85";"cbs3uao@rambler.ru";"cbs3-uao.ru";"87036276";
398;"Государственное бюджетное учреждение культуры города Москвы «Центральная библиотечная система № 3 Южного административного округа», Библиотека № 156 семейного чтения, информационный интеллект-центр";"Якорная улица, дом 5, корпус 2";"37,686356";"55,686754";"Южный административный округ";"район Нагатинский Затон";"(499) 615-15-85";"cbs3uao@rambler.ru";"cbs3-uao.ru";"87036277";
399;"Государственное бюджетное учреждение культуры города Москвы «Центральная библиотечная система № 3 Южного административного округа», Библиотека № 163 имени М.М. Володарского";"улица Серпуховский Вал, дом 24, корпус 2";"37,610174";"55,712857";"Южный административный округ";"Даниловский район";"(499) 615-15-85";"cbs3uao@rambler.ru";"cbs3-uao.ru";"87036278";
400;"Государственное бюджетное учреждение культуры города Москвы «Центральная библиотечная система № 3 Южного административного округа», Библиотека № 171 имени 1-го Мая";"Ленинский проспект, дом 37А";"37,586621";"55,708623";"Южный административный округ";"Донской район";"(499) 615-15-85";"cbs3uao@rambler.ru";"cbs3-uao.ru";"87036279";
401;"Государственное бюджетное учреждение культуры города Москвы «Центральная библиотечная система «Черёмушки», Детская библиотека № 20";"Тарусская улица, дом 14, корпус 2";"37,530297";"55,60447";"Юго-Западный административный округ";"район Ясенево";"(495) 429-05-55";"b219@cheremushky.ru";"cheremushky.ru";"87036286";
402;"Государственное бюджетное учреждение культуры города Москвы «Центральная библиотечная система «Черёмушки», Библиотека № 9";"Херсонская улица, дом 1";"37,576847";"55,649662";"Юго-Западный административный округ";"район Зюзино";"(495) 429-05-55";"b219@cheremushky.ru";"cheremushky.ru";"87036287";
403;"Государственное бюджетное учреждение культуры города Москвы «Центральная библиотечная система «Черёмушки», Детская библиотека № 91";"Херсонская улица, дом 1";"37,576847";"55,649662";"Юго-Западный административный округ";"район Зюзино";"(495) 429-05-55";"b219@cheremushky.ru";"cheremushky.ru";"87036288";
404;"Государственное бюджетное учреждение культуры города Москвы «Центральная библиотечная система «Черёмушки», Библиотека № 12";"улица Тёплый Стан, дом 4";"37,488678";"55,627663";"Юго-Западный административный округ";"район Тёплый Стан";"(495) 429-05-55";"b219@cheremushky.ru";"cheremushky.ru";"87036289";
405;"Государственное бюджетное учреждение культуры города Москвы «Центральная библиотечная система «Черёмушки», Библиотека № 26";"улица Академика Пилюгина, дом 14, корпус 2";"37,536114";"55,66996";"Юго-Западный административный округ";"Ломоносовский район";"(495) 429-05-55";"b219@cheremushky.ru";"cheremushky.ru";"87036290";
406;"Государственное бюджетное учреждение культуры города Москвы «Центральная библиотечная система «Черёмушки», Библиотека № 26, молодежный центр";"улица Паустовского, дом 2/34";"37,541319";"55,603107";"Юго-Западный административный округ";"район Ясенево";"(495) 429-05-55";"b219@cheremushky.ru";"cheremushky.ru";"87036291";
407;"Государственное бюджетное учреждение культуры города Москвы «Центральная библиотечная система «Черёмушки», Центральная детская библиотека № 124";"Профсоюзная улица, дом 92";"37,528417";"55,649126";"Юго-Западный административный округ";"район Коньково";"(495) 429-05-55";"b219@cheremushky.ru";"cheremushky.ru";"87036292";
408;"Государственное бюджетное учреждение культуры города Москвы «Центральная библиотечная система «Черёмушки», Библиотека № 176, информационный интеллект-центр";"улица Островитянова, дом 19/22";"37,510805";"55,638558";"Юго-Западный административный округ";"район Коньково";"(495) 429-05-55";"b219@cheremushky.ru";"cheremushky.ru";"87036293";
409;"Государственное бюджетное учреждение культуры города Москвы «Центральная библиотечная система Зеленоградского административного округа», Библиотека-филиал № 68";"город Зеленоград, корпус 1004";"37,178919";"55,984339";"Зеленоградский административный округ";"район Силино";"(499) 734-36-71";"cbszel@yandex.ru";"zelbiblio.ru";"87036412";
410;"Государственное бюджетное учреждение культуры города Москвы «Центральная библиотечная система Зеленоградского административного округа», Библиотека-филиал № 116";"город Зеленоград, корпус 607А";"37,230504";"55,98853";"Зеленоградский административный округ";"район Савёлки";"(499) 734-36-71";"cbszel@yandex.ru";"zelbiblio.ru";"87036413";
411;"Государственное бюджетное учреждение культуры города Москвы «Центральная библиотечная система Зеленоградского административного округа», Библиотека-филиал № 157";"город Зеленоград, корпус 1004";"37,178919";"55,984339";"Зеленоградский административный округ";"район Силино";"(499) 734-36-71";"cbszel@yandex.ru";"zelbiblio.ru";"87036414";
412;"Государственное бюджетное учреждение культуры города Москвы «Центральная библиотечная система Зеленоградского административного округа», Библиотека-филиал № 259";"город Зеленоград, корпус 1462";"37,164617";"55,984517";"Зеленоградский административный округ";"район Крюково";"(499) 734-36-71";"cbszel@yandex.ru";"zelbiblio.ru";"87036415";
413;"Государственное бюджетное учреждение культуры города Москвы «Центральная библиотечная система Зеленоградского административного округа», Центральная библиотека № 273";"город Зеленоград, корпус 231";"37,203428";"56,003356";"Зеленоградский административный округ";"район Матушкино";"(499) 734-36-71";"cbszel@yandex.ru";"zelbiblio.ru";"87036416";
414;"Государственное бюджетное учреждение культуры города Москвы «Центральная библиотечная система Зеленоградского административного округа», Библиотека-филиал № 303";"город Зеленоград, корпус 1106";"37,189402";"55,996622";"Зеленоградский административный округ";"район Силино";"(499) 734-36-71";"cbszel@yandex.ru";"zelbiblio.ru";"87036417";
415;"Государственное бюджетное учреждение культуры города Москвы «Центральная библиотечная система Новомосковская», Поселенческая библиотека имени К. Чуковского";"посёлок ДСК «Мичуринец», улица Серафимовича, дом 3А";"37,272662";"55,647324";"Новомосковский административный округ";"поселение Внуковское";"";"smirnow.a.s@gmail.com";"";"87036418";
416;"Государственное бюджетное учреждение культуры города Москвы «Центральная библиотечная система Новомосковская», Библиотека поселения Внуковское";"посёлок Минвнешторга, улица Ленина, дом 23";"37,261264";"55,635965";"Новомосковский административный округ";"поселение Внуковское";"";"smirnow.a.s@gmail.com";"";"87036419";
417;"Государственное бюджетное учреждение культуры города Москвы «Центральная библиотечная система Новомосковская», Библиотека поселения Московский";"город Московский, микрорайон 1, дом 49";"37,35382";"55,605782";"Новомосковский административный округ";"поселение Московский";"";"smirnow.a.s@gmail.com";"";"87036420";
418;"Государственное бюджетное учреждение культуры города Москвы «Центральная библиотечная система Новомосковская», Библиотека поселения Воскресенское";"посёлок Воскресенское, дом 39";"37,455215";"55,530289";"Новомосковский административный округ";"поселение Воскресенское";"";"smirnow.a.s@gmail.com";"";"87036421";
419;"Государственное бюджетное учреждение культуры города Москвы «Центральная библиотечная система Новомосковская», Библиотека поселения «Мосренген»";"посёлок Завода Мосренген, дом 19";"37,46211";"55,607465";"Новомосковский административный округ";"поселение ""Мосрентген""";"";"smirnow.a.s@gmail.com";"";"87036422";
420;"Государственное бюджетное учреждение культуры города Москвы «Центральная библиотечная система Новомосковская», Библиотека № 1 поселения Сосенское";"посёлок Газопровод, дом 16";"37,606794";"55,589991";"Новомосковский административный округ";"поселение Сосенское";"";"smirnow.a.s@gmail.com";"";"87036423";
421;"Государственное бюджетное учреждение культуры города Москвы «Центральная библиотечная система Новомосковская», Библиотека № 2 поселения Сосенское";"посёлок Коммунарка, дом 14А";"37,475662";"55,572382";"Новомосковский административный округ";"поселение Сосенское";"";"smirnow.a.s@gmail.com";"";"87036424";
422;"Государственное бюджетное учреждение культуры города Москвы «Центральная библиотечная система Новомосковская», Библиотека № 1 поселения Филимонковское";"посёлок Марьино, дом 3";"37,324073";"55,546736";"Новомосковский административный округ";"поселение Филимонковское";"";"smirnow.a.s@gmail.com";"";"87036425";
423;"Государственное бюджетное учреждение культуры города Москвы «Центральная библиотечная система Новомосковская», Библиотека № 2 поселения Филимонковское";"посёлок Валуево, дом 14";"37,355457";"55,577785";"Новомосковский административный округ";"поселение Филимонковское";"";"smirnow.a.s@gmail.com";"";"87036426";
424;"Государственное бюджетное учреждение культуры города Москвы «Центральная библиотечная система Новомосковская», Библиотека № 1 поселения Десеновское";"деревня Десна, улица Административная, дом 9А";"37,361794";"55,515875";"Новомосковский административный округ";"поселение Десеновское";"";"smirnow.a.s@gmail.com";"";"87036427";
425;"Государственное бюджетное учреждение культуры города Москвы «Центральная библиотечная система Новомосковская», Библиотека № 2 поселения Десеновское";"деревня Яковлево";"37,39488";"55,481823";"Новомосковский административный округ";"поселение Десеновское";"";"smirnow.a.s@gmail.com";"";"87036428";
426;"Государственное бюджетное учреждение культуры города Москвы «Центральная библиотечная система «Гагаринская», Детская библиотека № 88";"Озёрная улица, дом 13";"37,458554";"55,679822";"Западный административный округ";"район Очаково-Матвеевское";"(495) 433-53-44";"dir@gagarinlib.ru";"gagarinlib.ru";"87036367";
427;"Государственное бюджетное учреждение культуры города Москвы «Центральная библиотечная система «Гагаринская», Библиотека № 139 «Семейный круг»";"Нежинская улица, дом 13";"37,470933";"55,70644";"Западный административный округ";"район Очаково-Матвеевское";"(495) 433-53-44";"dir@gagarinlib.ru";"gagarinlib.ru";"87036368";
428;"Государственное бюджетное учреждение культуры города Москвы «Центральная библиотечная система «Гагаринская», Библиотека № 145 Интелект-центр «Компас»";"улица Удальцова, дом 26";"37,495883";"55,681243";"Западный административный округ";"район Проспект Вернадского";"(495) 433-53-44";"dir@gagarinlib.ru";"gagarinlib.ru";"87036369";
429;"Государственное бюджетное учреждение культуры города Москвы «Центральная библиотечная система «Гагаринская», Детская библиотека № 146";"проспект Вернадского, дом 93, корпус 1";"37,496684";"55,667077";"Западный административный округ";"район Тропарёво-Никулино";"(495) 433-53-44";"dir@gagarinlib.ru";"gagarinlib.ru";"87036370";
430;"Государственное бюджетное учреждение культуры города Москвы «Центральная библиотечная система «Гагаринская», Библиотека № 183";"улица Лобачевского, дом 100";"37,481692";"55,684772";"Западный административный округ";"район Раменки";"(495) 433-53-44";"dir@gagarinlib.ru";"gagarinlib.ru";"87036371";
431;"Государственное бюджетное учреждение культуры города Москвы «Центральная библиотечная система «Гагаринская», Центральная библиотека № 202 имени Ю.А. Гагарина";"проспект Вернадского, дом 109";"37,483688";"55,661362";"Западный административный округ";"район Тропарёво-Никулино";"(495) 433-53-44";"dir@gagarinlib.ru";"gagarinlib.ru";"87036372";
432;"Государственное бюджетное учреждение культуры города Москвы «Центральная библиотечная система «Гагаринская», Библиотека семейного чтения № 223";"улица Академика Анохина, дом 30, корпус 3";"37,467071";"55,660451";"Западный административный округ";"район Тропарёво-Никулино";"(495) 433-53-44";"dir@gagarinlib.ru";"gagarinlib.ru";"87036373";
433;"Государственное бюджетное учреждение культуры города Москвы «Библиотечно-информационный центр «Семья и детство»";"Домостроительная улица, дом 1, корпус 1";"37,426792";"55,666214";"Западный административный округ";"район Солнцево";"(495)444-54-04; (495) 435-39-81";"4353981@mail.ru";"";"87036374";
434;"Государственное бюджетное учреждение культуры города Москвы «Центральная библиотечная система Северо-Западного административного округа», Библиотека № 30";"3-й Митинский проезд, дом 2";"37,353361";"55,848548";"Северо-Западный административный округ";"район Митино";"(495) 948-81-91";"cbs1szao@gmail.com";"cbs1szao.ru";"87036375";
435;"Государственное бюджетное учреждение культуры города Москвы «Центральная библиотечная система Северо-Западного административного округа», Библиотека № 31";"Большая Набережная улица, дом 15";"37,457307";"55,830731";"Северо-Западный административный округ";"район Покровское-Стрешнево";"(495) 948-81-91";"cbs1szao@gmail.com";"cbs1szao.ru";"87036376";
436;"Государственное бюджетное учреждение культуры города Москвы «Центральная библиотечная система Северо-Западного административного округа», Библиотека № 32";"улица Барышиха, дом 21";"37,347448";"55,844853";"Северо-Западный административный округ";"район Митино";"(495) 948-81-91";"cbs1szao@gmail.com";"cbs1szao.ru";"87036377";
437;"Государственное бюджетное учреждение культуры города Москвы «Центральная библиотечная система Северо-Западного административного округа», Библиотека № 33";"Пятницкое шоссе, дом 16, корпус 1";"37,386934";"55,84326";"Северо-Западный административный округ";"район Митино";"(495) 948-81-91";"cbs1szao@gmail.com";"cbs1szao.ru";"87036378";
438;"Государственное бюджетное учреждение культуры города Москвы «Центральная библиотечная система Северо-Западного административного округа», Библиотека № 34";"улица Генерала Белобородова, дом 30";"37,353303";"55,829451";"Северо-Западный административный округ";"район Митино";"(495) 948-81-91";"cbs1szao@gmail.com";"cbs1szao.ru";"87036379";
439;"Государственное бюджетное учреждение культуры города Москвы «Центральная библиотечная система Северо-Западного административного округа», Библиотека № 55";"улица Габричевского, дом 8";"37,459217";"55,815912";"Северо-Западный административный округ";"район Покровское-Стрешнево";"(495) 948-81-91";"cbs1szao@gmail.com";"cbs1szao.ru";"87036380";
440;"Государственное бюджетное учреждение культуры города Москвы «Центральная библиотечная система Северо-Западного административного округа», Центральная детская библиотека № 110";"Химкинский бульвар, дом 16, корпус 1";"37,442935";"55,851982";"Северо-Западный административный округ";"район Северное Тушино";"(495) 948-81-91";"cbs1szao@gmail.com";"cbs1szao.ru";"87036381";
441;"Государственное бюджетное учреждение культуры города Москвы «Центральная библиотечная система Северо-Западного административного округа», Детская библиотека № 123";"Планерная улица, дом 7, корпус 1";"37,433487";"55,862743";"Северо-Западный административный округ";"район Северное Тушино";"(495) 948-81-91";"cbs1szao@gmail.com";"cbs1szao.ru";"87036382";
442;"Государственное бюджетное учреждение культуры города Москвы «Центральная библиотечная система Северо-Западного административного округа», Библиотека № 128";"бульвар Яна Райниса, дом 2, корпус 1";"37,434482";"55,851067";"Северо-Западный административный округ";"район Северное Тушино";"(495) 948-81-91";"cbs1szao@gmail.com";"cbs1szao.ru";"87036383";
443;"Государственное бюджетное учреждение культуры города Москвы «Центральная библиотечная система Северо-Западного административного округа», Детская библиотека № 136";"улица Свободы, дом 45, строение 1";"37,453168";"55,845741";"Северо-Западный административный округ";"район Южное Тушино";"(495) 948-81-91";"cbs1szao@gmail.com";"cbs1szao.ru";"87036384";
444;"Государственное бюджетное учреждение культуры города Москвы «Центральная библиотечная система Северо-Западного административного округа», Библиотека № 150";"1-й Тушинский проезд, дом 4";"37,422306";"55,833393";"Северо-Западный административный округ";"район Покровское-Стрешнево";"(495) 948-81-91";"cbs1szao@gmail.com";"cbs1szao.ru";"87036385";
445;"Государственное бюджетное учреждение культуры города Москвы «Центральная библиотечная система Северо-Западного административного округа», Библиотека № 191";"Парусный проезд, дом 15";"37,44688";"55,846325";"Северо-Западный административный округ";"район Южное Тушино";"(495) 948-81-91";"cbs1szao@gmail.com";"cbs1szao.ru";"87036386";
446;"Государственное бюджетное учреждение культуры города Москвы «Центральная библиотечная система Северо-Западного административного округа», Библиотека № 199";"улица Героев Панфиловцев, дом 12, корпус 1";"37,429637";"55,858782";"Северо-Западный административный округ";"район Северное Тушино";"(495) 948-81-91";"cbs1szao@gmail.com";"cbs1szao.ru";"87036387";
447;"Государственное бюджетное учреждение культуры города Москвы «Центральная библиотечная система Северо-Западного административного округа», Библиотека № 216";"Туристская улица, дом 31, корпус 1";"37,419537";"55,85734";"Северо-Западный административный округ";"район Северное Тушино";"(495) 948-81-91";"cbs1szao@gmail.com";"cbs1szao.ru";"87036388";
448;"Государственное бюджетное учреждение культуры города Москвы «Центральная библиотечная система Северо-Западного административного округа», Библиотека № 217";"улица Свободы, дом 61";"37,450084";"55,853713";"Северо-Западный административный округ";"район Северное Тушино";"(495) 948-81-91";"cbs1szao@gmail.com";"cbs1szao.ru";"87036389";
449;"Государственное бюджетное учреждение культуры города Москвы «Центральная библиотечная система Северо-Западного административного округа», Библиотека № 224";"2-й Тушинский проезд, дом 8";"37,418922";"55,835227";"Северо-Западный административный округ";"район Покровское-Стрешнево";"(495) 948-81-91";"cbs1szao@gmail.com";"cbs1szao.ru";"87036390";
450;"Государственное бюджетное учреждение культуры города Москвы «Центральная библиотечная система Северо-Западного административного округа», Библиотека № 246";"Родионовская улица, дом 9";"37,394492";"55,893204";"Северо-Западный административный округ";"район Куркино";"(495) 948-81-91";"cbs1szao@gmail.com";"cbs1szao.ru";"87036391";
451;"Государственное бюджетное учреждение культуры города Москвы «Центральная библиотечная система Северо-Западного административного округа», Библиотека № 252";"3-й Митинский проезд, дом 2";"37,353361";"55,848548";"Северо-Западный административный округ";"район Митино";"(495) 948-81-91";"cbs1szao@gmail.com";"cbs1szao.ru";"87036392";
452;"Государственное бюджетное учреждение культуры города Москвы «Центральная библиотечная система Северо-Западного административного округа», Центральная библиотека № 271";"бульвар Яна Райниса, дом 1";"37,436083";"55,849878";"Северо-Западный административный округ";"район Южное Тушино";"(495) 948-81-91";"cbs1szao@gmail.com";"cbs1szao.ru";"87036393";
453;"Государственное бюджетное учреждение культуры города Москвы «Центральная библиотечная система Северо-Западного административного округа», Детская библиотека № 4";"улица Демьяна Бедного, дом 16";"37,488693";"55,776721";"Северо-Западный административный округ";"район Хорошёво-Мнёвники";"(499) 191-63-10; (499) 720-43-17";"shapurina@mail.ru";"horoshevo.ru";"87036394";
454;"Государственное бюджетное учреждение культуры города Москвы «Центральная библиотечная система Северо-Западного административного округа», Библиотека № 14";"улица Кулакова, дом 19";"37,39649";"55,806285";"Северо-Западный административный округ";"район Строгино";"(499) 191-63-10; (499) 720-43-17";"shapurina@mail.ru";"horoshevo.ru";"87036395";
455;"Государственное бюджетное учреждение культуры города Москвы «Центральная библиотечная система Северо-Западного административного округа», Центральная детская библиотека № 27";"улица Академика Бочвара, дом 5, корпус 1";"37,462623";"55,80678";"Северо-Западный административный округ";"район Щукино";"(499) 191-63-10; (499) 720-43-17";"shapurina@mail.ru";"horoshevo.ru";"87036396";
456;"Государственное бюджетное учреждение культуры города Москвы «Центральная библиотечная система Северо-Западного административного округа», Библиотека № 28";"бульвар Генерала Карбышева, дом 9, корпус 1";"37,468506";"55,780349";"Северо-Западный административный округ";"район Хорошёво-Мнёвники";"(499) 191-63-10; (499) 720-43-17";"shapurina@mail.ru";"horoshevo.ru";"87036397";
457;"Государственное бюджетное учреждение культуры города Москвы «Центральная библиотечная система Северо-Западного административного округа», Библиотека № 45";"улица Академика Бочвара, дом 2";"37,461952";"55,807241";"Северо-Западный административный округ";"район Щукино";"(499) 191-63-10; (499) 720-43-17";"shapurina@mail.ru";"horoshevo.ru";"87036398";
458;"Государственное бюджетное учреждение культуры города Москвы «Центральная библиотечная система Северо-Западного административного округа», Центральная библиотека № 49";"Мнёвники улица, дом 10, корпус 1";"37,493604";"55,77342";"Северо-Западный административный округ";"район Хорошёво-Мнёвники";"(499) 191-63-10; (499) 720-43-17";"shapurina@mail.ru";"horoshevo.ru";"87036399";
459;"Государственное бюджетное учреждение культуры города Москвы «Центральная библиотечная система Северо-Западного административного округа», Библиотека № 50";"улица Маршала Конева, дом 16";"37,484596";"55,795475";"Северо-Западный административный округ";"район Щукино";"(499) 191-63-10; (499) 720-43-17";"shapurina@mail.ru";"horoshevo.ru";"87036400";
460;"Государственное бюджетное учреждение культуры города Москвы «Центральная библиотечная система Северо-Западного административного округа», Библиотека № 51";"улица Паршина, дом 33";"37,455507";"55,78882";"Северо-Западный административный округ";"район Хорошёво-Мнёвники";"(499) 191-63-10; (499) 720-43-17";"shapurina@mail.ru";"horoshevo.ru";"87036401";
461;"Государственное бюджетное учреждение культуры города Москвы «Центральная библиотечная система Северо-Западного административного округа», Библиотека № 52";"улица Расплетина, дом 12, корпус 2";"37,484017";"55,790879";"Северо-Западный административный округ";"район Щукино";"(499) 191-63-10; (499) 720-43-17";"shapurina@mail.ru";"horoshevo.ru";"87036402";
462;"Государственное бюджетное учреждение культуры города Москвы «Центральная библиотечная система Северо-Западного административного округа», Библиотека № 53";"улица Демьяна Бедного, дом 16";"37,488693";"55,776721";"Северо-Западный административный округ";"район Хорошёво-Мнёвники";"(499) 191-63-10; (499) 720-43-17";"shapurina@mail.ru";"horoshevo.ru";"87036403";
463;"Государственное бюджетное учреждение культуры города Москвы «Центральная библиотечная система Северо-Западного административного округа», Библиотека № 54";"улица Маршала Тухачевского, дом 28, корпус 1";"37,474322";"55,784464";"Северо-Западный административный округ";"район Хорошёво-Мнёвники";"(499) 191-63-10; (499) 720-43-17";"shapurina@mail.ru";"horoshevo.ru";"87036404";
464;"Государственное бюджетное учреждение культуры города Москвы «Центральная библиотечная система Северо-Западного административного округа», Библиотека № 58";"улица Маршала Катукова, дом 19, корпус 2";"37,41007";"55,80793";"Северо-Западный административный округ";"район Строгино";"(499) 191-63-10; (499) 720-43-17";"shapurina@mail.ru";"horoshevo.ru";"87036405";
465;"Государственное бюджетное учреждение культуры города Москвы «Центральная библиотечная система Северо-Западного административного округа», Библиотека № 98";"улица Народного Ополчения, дом 37, корпус 1";"37,487829";"55,790699";"Северо-Западный административный округ";"район Щукино";"(499) 191-63-10; (499) 720-43-17";"shapurina@mail.ru";"horoshevo.ru";"87036406";
466;"Государственное бюджетное учреждение культуры города Москвы «Центральная библиотечная система Северо-Западного административного округа», Библиотека № 120";"улица Твардовского, дом 21, корпус 2";"37,403328";"55,795751";"Северо-Западный административный округ";"район Строгино";"(499) 191-63-10; (499) 720-43-17";"shapurina@mail.ru";"horoshevo.ru";"87036407";
467;"Государственное бюджетное учреждение культуры города Москвы «Центральная библиотечная система Северо-Западного административного округа», Детская библиотека № 158";"улица Маршала Катукова, дом 11, корпус 2";"37,40515";"55,811315";"Северо-Западный административный округ";"район Строгино";"(499) 191-63-10; (499) 720-43-17";"shapurina@mail.ru";"horoshevo.ru";"87036408";
468;"Государственное бюджетное учреждение культуры города Москвы «Центральная библиотечная система Северо-Западного административного округа», Библиотека № 221";"улица Берзарина, дом 6, корпус 1";"37,493164";"55,788322";"Северо-Западный административный округ";"район Щукино";"(499) 191-63-10; (499) 720-43-17";"shapurina@mail.ru";"horoshevo.ru";"87036409";
469;"Государственное бюджетное учреждение культуры города Москвы «Центральная библиотечная система Зеленоградского административного округа», Центральная детская библиотека № 2";"город Зеленоград, корпус 401";"37,2089";"56,000285";"Зеленоградский административный округ";"район Матушкино";"(499) 734-36-71";"cbszel@yandex.ru";"zelbiblio.ru";"87036410";
470;"Государственное бюджетное учреждение культуры города Москвы «Центральная библиотечная система Зеленоградского административного округа», Библиотека-филиал № 6";"город Зеленоград, корпус 232";"37,202918";"56,003091";"Зеленоградский административный округ";"район Матушкино";"(499) 734-36-71";"cbszel@yandex.ru";"zelbiblio.ru";"87036411";
